<?xml version="1.0" encoding="UTF-8"?>
<gpx version="1.1" creator="gpx.studio"
  xmlns="http://www.topografix.com/GPX/1/1"
  xmlns:xsi="http://www.w3.org/2001/XMLSchema-instance"
  xsi:schemaLocation="http://www.topografix.com/GPX/1/1 http://www.topografix.com/GPX/1/1/gpx.xsd">
  <metadata>
    <name>anello 1 - 14 giugno</name>
    <desc>Anello completo. Lunghezza ~9.7 km - Dislivello +655 m. Durata: ~53 min.</desc>
    <time>2024-06-15T08:00:00.000Z</time>
  </metadata>
  <trk>
    <name>Anello 1 - 14 giugno (Cerce)</name>
    <type>MTB</type>
    <trkseg>
      <trkpt lat="44.362681" lon="8.465691">
        <ele>72.61</ele>
        <time>2024-06-15T08:00:00.000Z</time>
      </trkpt>
      <trkpt lat="44.362957" lon="8.465289">
        <ele>70.65</ele>
        <time>2024-06-15T08:00:20.377Z</time>
      </trkpt>
      <trkpt lat="44.363130" lon="8.465081">
        <ele>69.10</ele>
        <time>2024-06-15T08:00:32.043Z</time>
      </trkpt>
      <trkpt lat="44.363251" lon="8.465019">
        <ele>68.72</ele>
        <time>2024-06-15T08:00:38.632Z</time>
      </trkpt>
      <trkpt lat="44.363350" lon="8.465046">
        <ele>69.38</ele>
        <time>2024-06-15T08:00:43.790Z</time>
      </trkpt>
      <trkpt lat="44.363519" lon="8.465191">
        <ele>71.64</ele>
        <time>2024-06-15T08:00:53.928Z</time>
      </trkpt>
      <trkpt lat="44.363676" lon="8.464843">
        <ele>70.68</ele>
        <time>2024-06-15T08:01:08.972Z</time>
      </trkpt>
      <trkpt lat="44.363703" lon="8.464644">
        <ele>71.80</ele>
        <time>2024-06-15T08:01:16.377Z</time>
      </trkpt>
      <trkpt lat="44.363742" lon="8.464388">
        <ele>73.33</ele>
        <time>2024-06-15T08:01:25.946Z</time>
      </trkpt>
      <trkpt lat="44.363802" lon="8.464168">
        <ele>73.59</ele>
        <time>2024-06-15T08:01:34.554Z</time>
      </trkpt>
      <trkpt lat="44.363947" lon="8.463765">
        <ele>72.63</ele>
        <time>2024-06-15T08:01:51.048Z</time>
      </trkpt>
      <trkpt lat="44.364227" lon="8.463175">
        <ele>72.69</ele>
        <time>2024-06-15T08:02:16.938Z</time>
      </trkpt>
      <trkpt lat="44.364345" lon="8.463114">
        <ele>73.67</ele>
        <time>2024-06-15T08:02:23.371Z</time>
      </trkpt>
      <trkpt lat="44.364380" lon="8.463081">
        <ele>73.97</ele>
        <time>2024-06-15T08:02:25.529Z</time>
      </trkpt>
      <trkpt lat="44.364420" lon="8.462989">
        <ele>74.27</ele>
        <time>2024-06-15T08:02:29.465Z</time>
      </trkpt>
      <trkpt lat="44.364462" lon="8.462252">
        <ele>74.60</ele>
        <time>2024-06-15T08:02:56.495Z</time>
      </trkpt>
      <trkpt lat="44.364501" lon="8.461964">
        <ele>75.36</ele>
        <time>2024-06-15T08:03:07.211Z</time>
      </trkpt>
      <trkpt lat="44.364692" lon="8.461428">
        <ele>76.83</ele>
        <time>2024-06-15T08:03:29.106Z</time>
      </trkpt>
      <trkpt lat="44.364860" lon="8.461129">
        <ele>78.09</ele>
        <time>2024-06-15T08:03:43.009Z</time>
      </trkpt>
      <trkpt lat="44.364982" lon="8.460841">
        <ele>78.70</ele>
        <time>2024-06-15T08:03:55.247Z</time>
      </trkpt>
      <trkpt lat="44.365056" lon="8.460722">
        <ele>79.18</ele>
        <time>2024-06-15T08:04:01.013Z</time>
      </trkpt>
      <trkpt lat="44.365094" lon="8.460624">
        <ele>79.20</ele>
        <time>2024-06-15T08:04:05.088Z</time>
      </trkpt>
      <trkpt lat="44.365212" lon="8.459967">
        <ele>80.70</ele>
        <time>2024-06-15T08:04:29.853Z</time>
      </trkpt>
      <trkpt lat="44.365255" lon="8.459856">
        <ele>81.26</ele>
        <time>2024-06-15T08:04:34.468Z</time>
      </trkpt>
      <trkpt lat="44.365444" lon="8.459518">
        <ele>83.40</ele>
        <time>2024-06-15T08:04:50.156Z</time>
      </trkpt>
      <trkpt lat="44.365572" lon="8.459391">
        <ele>83.50</ele>
        <time>2024-06-15T08:04:58.181Z</time>
      </trkpt>
      <trkpt lat="44.365623" lon="8.459369">
        <ele>83.56</ele>
        <time>2024-06-15T08:05:00.910Z</time>
      </trkpt>
      <trkpt lat="44.365697" lon="8.459355">
        <ele>83.95</ele>
        <time>2024-06-15T08:05:04.728Z</time>
      </trkpt>
      <trkpt lat="44.365777" lon="8.459353">
        <ele>85.23</ele>
        <time>2024-06-15T08:05:08.819Z</time>
      </trkpt>
      <trkpt lat="44.365826" lon="8.459319">
        <ele>86.15</ele>
        <time>2024-06-15T08:05:11.616Z</time>
      </trkpt>
      <trkpt lat="44.365991" lon="8.459132">
        <ele>90.72</ele>
        <time>2024-06-15T08:05:22.475Z</time>
      </trkpt>
      <trkpt lat="44.366034" lon="8.459012">
        <ele>91.30</ele>
        <time>2024-06-15T08:05:27.382Z</time>
      </trkpt>
      <trkpt lat="44.366075" lon="8.458826">
        <ele>91.01</ele>
        <time>2024-06-15T08:05:34.497Z</time>
      </trkpt>
      <trkpt lat="44.366091" lon="8.458532">
        <ele>90.38</ele>
        <time>2024-06-15T08:05:45.276Z</time>
      </trkpt>
      <trkpt lat="44.366120" lon="8.458396">
        <ele>92.37</ele>
        <time>2024-06-15T08:05:50.464Z</time>
      </trkpt>
      <trkpt lat="44.366109" lon="8.458231">
        <ele>93.14</ele>
        <time>2024-06-15T08:05:56.522Z</time>
      </trkpt>
      <trkpt lat="44.366066" lon="8.457922">
        <ele>94.60</ele>
        <time>2024-06-15T08:06:08.030Z</time>
      </trkpt>
      <trkpt lat="44.366023" lon="8.457732">
        <ele>94.51</ele>
        <time>2024-06-15T08:06:15.315Z</time>
      </trkpt>
      <trkpt lat="44.366023" lon="8.457540">
        <ele>95.98</ele>
        <time>2024-06-15T08:06:22.334Z</time>
      </trkpt>
      <trkpt lat="44.366059" lon="8.457394">
        <ele>98.51</ele>
        <time>2024-06-15T08:06:27.980Z</time>
      </trkpt>
      <trkpt lat="44.366062" lon="8.457354">
        <ele>98.93</ele>
        <time>2024-06-15T08:06:29.450Z</time>
      </trkpt>
      <trkpt lat="44.366024" lon="8.457201">
        <ele>98.64</ele>
        <time>2024-06-15T08:06:35.371Z</time>
      </trkpt>
      <trkpt lat="44.366014" lon="8.457080">
        <ele>99.30</ele>
        <time>2024-06-15T08:06:39.824Z</time>
      </trkpt>
      <trkpt lat="44.366138" lon="8.456740">
        <ele>106.11</ele>
        <time>2024-06-15T08:06:53.778Z</time>
      </trkpt>
      <trkpt lat="44.366255" lon="8.456325">
        <ele>110.61</ele>
        <time>2024-06-15T08:07:10.087Z</time>
      </trkpt>
      <trkpt lat="44.366303" lon="8.456045">
        <ele>110.42</ele>
        <time>2024-06-15T08:07:20.613Z</time>
      </trkpt>
      <trkpt lat="44.366332" lon="8.455710">
        <ele>109.45</ele>
        <time>2024-06-15T08:07:32.949Z</time>
      </trkpt>
      <trkpt lat="44.366361" lon="8.455584">
        <ele>109.59</ele>
        <time>2024-06-15T08:07:37.788Z</time>
      </trkpt>
      <trkpt lat="44.366421" lon="8.455452">
        <ele>110.51</ele>
        <time>2024-06-15T08:07:43.506Z</time>
      </trkpt>
      <trkpt lat="44.366549" lon="8.455264">
        <ele>112.71</ele>
        <time>2024-06-15T08:07:52.997Z</time>
      </trkpt>
      <trkpt lat="44.366823" lon="8.454986">
        <ele>123.12</ele>
        <time>2024-06-15T08:08:10.306Z</time>
      </trkpt>
      <trkpt lat="44.366856" lon="8.454888">
        <ele>123.38</ele>
        <time>2024-06-15T08:08:14.266Z</time>
      </trkpt>
      <trkpt lat="44.366866" lon="8.454783">
        <ele>122.45</ele>
        <time>2024-06-15T08:08:18.138Z</time>
      </trkpt>
      <trkpt lat="44.366886" lon="8.454702">
        <ele>123.37</ele>
        <time>2024-06-15T08:08:21.270Z</time>
      </trkpt>
      <trkpt lat="44.366891" lon="8.454649">
        <ele>123.48</ele>
        <time>2024-06-15T08:08:23.224Z</time>
      </trkpt>
      <trkpt lat="44.366886" lon="8.454607">
        <ele>122.88</ele>
        <time>2024-06-15T08:08:24.780Z</time>
      </trkpt>
      <trkpt lat="44.366896" lon="8.454323">
        <ele>123.98</ele>
        <time>2024-06-15T08:08:35.175Z</time>
      </trkpt>
      <trkpt lat="44.366893" lon="8.454059">
        <ele>124.17</ele>
        <time>2024-06-15T08:08:44.827Z</time>
      </trkpt>
      <trkpt lat="44.366924" lon="8.453643">
        <ele>125.97</ele>
        <time>2024-06-15T08:09:00.117Z</time>
      </trkpt>
      <trkpt lat="44.366929" lon="8.453501">
        <ele>125.53</ele>
        <time>2024-06-15T08:09:05.314Z</time>
      </trkpt>
      <trkpt lat="44.366987" lon="8.453042">
        <ele>125.75</ele>
        <time>2024-06-15T08:09:22.354Z</time>
      </trkpt>
      <trkpt lat="44.367002" lon="8.452952">
        <ele>125.79</ele>
        <time>2024-06-15T08:09:25.732Z</time>
      </trkpt>
      <trkpt lat="44.367035" lon="8.452853">
        <ele>127.37</ele>
        <time>2024-06-15T08:09:29.725Z</time>
      </trkpt>
      <trkpt lat="44.367068" lon="8.452822">
        <ele>129.70</ele>
        <time>2024-06-15T08:09:31.757Z</time>
      </trkpt>
      <trkpt lat="44.367183" lon="8.452762">
        <ele>137.77</ele>
        <time>2024-06-15T08:09:38.033Z</time>
      </trkpt>
      <trkpt lat="44.367219" lon="8.452714">
        <ele>140.11</ele>
        <time>2024-06-15T08:09:40.576Z</time>
      </trkpt>
      <trkpt lat="44.367220" lon="8.452684">
        <ele>140.18</ele>
        <time>2024-06-15T08:09:41.673Z</time>
      </trkpt>
      <trkpt lat="44.367207" lon="8.452650">
        <ele>139.45</ele>
        <time>2024-06-15T08:09:43.082Z</time>
      </trkpt>
      <trkpt lat="44.367128" lon="8.452536">
        <ele>134.81</ele>
        <time>2024-06-15T08:09:48.886Z</time>
      </trkpt>
      <trkpt lat="44.367098" lon="8.452450">
        <ele>133.46</ele>
        <time>2024-06-15T08:09:52.384Z</time>
      </trkpt>
      <trkpt lat="44.367110" lon="8.452272">
        <ele>136.00</ele>
        <time>2024-06-15T08:09:58.920Z</time>
      </trkpt>
      <trkpt lat="44.367177" lon="8.451866">
        <ele>140.59</ele>
        <time>2024-06-15T08:10:14.152Z</time>
      </trkpt>
      <trkpt lat="44.367263" lon="8.451481">
        <ele>142.48</ele>
        <time>2024-06-15T08:10:28.897Z</time>
      </trkpt>
      <trkpt lat="44.367367" lon="8.451237">
        <ele>145.76</ele>
        <time>2024-06-15T08:10:39.282Z</time>
      </trkpt>
      <trkpt lat="44.367403" lon="8.450976">
        <ele>145.16</ele>
        <time>2024-06-15T08:10:48.999Z</time>
      </trkpt>
      <trkpt lat="44.367462" lon="8.450831">
        <ele>147.38</ele>
        <time>2024-06-15T08:10:55.098Z</time>
      </trkpt>
      <trkpt lat="44.367524" lon="8.450637">
        <ele>148.32</ele>
        <time>2024-06-15T08:11:02.866Z</time>
      </trkpt>
      <trkpt lat="44.367588" lon="8.450527">
        <ele>150.23</ele>
        <time>2024-06-15T08:11:08.050Z</time>
      </trkpt>
      <trkpt lat="44.367825" lon="8.450240">
        <ele>155.95</ele>
        <time>2024-06-15T08:11:24.080Z</time>
      </trkpt>
      <trkpt lat="44.367930" lon="8.450135">
        <ele>157.42</ele>
        <time>2024-06-15T08:11:30.680Z</time>
      </trkpt>
      <trkpt lat="44.368012" lon="8.450073">
        <ele>158.55</ele>
        <time>2024-06-15T08:11:35.446Z</time>
      </trkpt>
      <trkpt lat="44.368183" lon="8.449970">
        <ele>160.36</ele>
        <time>2024-06-15T08:11:44.967Z</time>
      </trkpt>
      <trkpt lat="44.368305" lon="8.449923">
        <ele>163.12</ele>
        <time>2024-06-15T08:11:51.438Z</time>
      </trkpt>
      <trkpt lat="44.368369" lon="8.449876">
        <ele>164.04</ele>
        <time>2024-06-15T08:11:55.134Z</time>
      </trkpt>
      <trkpt lat="44.368392" lon="8.449814">
        <ele>162.59</ele>
        <time>2024-06-15T08:11:57.687Z</time>
      </trkpt>
      <trkpt lat="44.368408" lon="8.449708">
        <ele>159.02</ele>
        <time>2024-06-15T08:12:01.647Z</time>
      </trkpt>
      <trkpt lat="44.368499" lon="8.449510">
        <ele>156.48</ele>
        <time>2024-06-15T08:12:10.252Z</time>
      </trkpt>
      <trkpt lat="44.368665" lon="8.449261">
        <ele>155.80</ele>
        <time>2024-06-15T08:12:22.698Z</time>
      </trkpt>
      <trkpt lat="44.368784" lon="8.449136">
        <ele>158.50</ele>
        <time>2024-06-15T08:12:30.308Z</time>
      </trkpt>
      <trkpt lat="44.368813" lon="8.448975">
        <ele>155.25</ele>
        <time>2024-06-15T08:12:36.377Z</time>
      </trkpt>
      <trkpt lat="44.368871" lon="8.448466">
        <ele>149.73</ele>
        <time>2024-06-15T08:12:55.219Z</time>
      </trkpt>
      <trkpt lat="44.368878" lon="8.448324">
        <ele>148.65</ele>
        <time>2024-06-15T08:13:00.422Z</time>
      </trkpt>
      <trkpt lat="44.368860" lon="8.448103">
        <ele>145.43</ele>
        <time>2024-06-15T08:13:08.553Z</time>
      </trkpt>
      <trkpt lat="44.368872" lon="8.447901">
        <ele>143.23</ele>
        <time>2024-06-15T08:13:15.962Z</time>
      </trkpt>
      <trkpt lat="44.368944" lon="8.447772">
        <ele>144.22</ele>
        <time>2024-06-15T08:13:21.945Z</time>
      </trkpt>
      <trkpt lat="44.369103" lon="8.447527">
        <ele>146.14</ele>
        <time>2024-06-15T08:13:34.041Z</time>
      </trkpt>
      <trkpt lat="44.369141" lon="8.447405">
        <ele>145.09</ele>
        <time>2024-06-15T08:13:38.905Z</time>
      </trkpt>
      <trkpt lat="44.369178" lon="8.447322">
        <ele>145.12</ele>
        <time>2024-06-15T08:13:42.480Z</time>
      </trkpt>
      <trkpt lat="44.369178" lon="8.447322">
        <ele>145.12</ele>
        <time>2024-06-15T08:13:42.480Z</time>
      </trkpt>
      <trkpt lat="44.369525" lon="8.446839">
        <ele>150.66</ele>
        <time>2024-06-15T08:14:57.887Z</time>
      </trkpt>
      <trkpt lat="44.369633" lon="8.446718">
        <ele>152.70</ele>
        <time>2024-06-15T08:15:04.887Z</time>
      </trkpt>
      <trkpt lat="44.369767" lon="8.446604">
        <ele>155.38</ele>
        <time>2024-06-15T08:15:12.887Z</time>
      </trkpt>
      <trkpt lat="44.369848" lon="8.446547">
        <ele>157.24</ele>
        <time>2024-06-15T08:15:17.887Z</time>
      </trkpt>
      <trkpt lat="44.369914" lon="8.446486">
        <ele>158.42</ele>
        <time>2024-06-15T08:15:21.887Z</time>
      </trkpt>
      <trkpt lat="44.370084" lon="8.446275">
        <ele>160.97</ele>
        <time>2024-06-15T08:15:32.887Z</time>
      </trkpt>
      <trkpt lat="44.370212" lon="8.446071">
        <ele>161.58</ele>
        <time>2024-06-15T08:15:42.887Z</time>
      </trkpt>
      <trkpt lat="44.370255" lon="8.446033">
        <ele>162.17</ele>
        <time>2024-06-15T08:15:45.887Z</time>
      </trkpt>
      <trkpt lat="44.370584" lon="8.445908">
        <ele>168.39</ele>
        <time>2024-06-15T08:16:02.887Z</time>
      </trkpt>
      <trkpt lat="44.370663" lon="8.445869">
        <ele>169.20</ele>
        <time>2024-06-15T08:16:06.887Z</time>
      </trkpt>
      <trkpt lat="44.370717" lon="8.445820">
        <ele>168.74</ele>
        <time>2024-06-15T08:16:09.887Z</time>
      </trkpt>
      <trkpt lat="44.370774" lon="8.445734">
        <ele>166.61</ele>
        <time>2024-06-15T08:16:14.887Z</time>
      </trkpt>
      <trkpt lat="44.370996" lon="8.445560">
        <ele>165.17</ele>
        <time>2024-06-15T08:16:27.887Z</time>
      </trkpt>
      <trkpt lat="44.371052" lon="8.445529">
        <ele>163.95</ele>
        <time>2024-06-15T08:16:30.887Z</time>
      </trkpt>
      <trkpt lat="44.371128" lon="8.445508">
        <ele>164.08</ele>
        <time>2024-06-15T08:16:34.887Z</time>
      </trkpt>
      <trkpt lat="44.371408" lon="8.445511">
        <ele>166.81</ele>
        <time>2024-06-15T08:16:48.887Z</time>
      </trkpt>
      <trkpt lat="44.371533" lon="8.445498">
        <ele>167.33</ele>
        <time>2024-06-15T08:16:54.887Z</time>
      </trkpt>
      <trkpt lat="44.371688" lon="8.445468">
        <ele>167.52</ele>
        <time>2024-06-15T08:17:02.887Z</time>
      </trkpt>
      <trkpt lat="44.372166" lon="8.445439">
        <ele>172.99</ele>
        <time>2024-06-15T08:17:27.887Z</time>
      </trkpt>
      <trkpt lat="44.372366" lon="8.445371">
        <ele>176.53</ele>
        <time>2024-06-15T08:17:37.887Z</time>
      </trkpt>
      <trkpt lat="44.372494" lon="8.445296">
        <ele>178.22</ele>
        <time>2024-06-15T08:17:44.887Z</time>
      </trkpt>
      <trkpt lat="44.372606" lon="8.445213">
        <ele>178.91</ele>
        <time>2024-06-15T08:17:51.887Z</time>
      </trkpt>
      <trkpt lat="44.372801" lon="8.444997">
        <ele>178.54</ele>
        <time>2024-06-15T08:18:03.887Z</time>
      </trkpt>
      <trkpt lat="44.373142" lon="8.444570">
        <ele>178.21</ele>
        <time>2024-06-15T08:18:26.887Z</time>
      </trkpt>
      <trkpt lat="44.373239" lon="8.444418">
        <ele>176.76</ele>
        <time>2024-06-15T08:18:34.887Z</time>
      </trkpt>
      <trkpt lat="44.373420" lon="8.444035">
        <ele>173.67</ele>
        <time>2024-06-15T08:18:51.887Z</time>
      </trkpt>
      <trkpt lat="44.373463" lon="8.443925">
        <ele>173.27</ele>
        <time>2024-06-15T08:18:55.887Z</time>
      </trkpt>
      <trkpt lat="44.373488" lon="8.443834">
        <ele>172.99</ele>
        <time>2024-06-15T08:18:59.887Z</time>
      </trkpt>
      <trkpt lat="44.373564" lon="8.443653">
        <ele>172.89</ele>
        <time>2024-06-15T08:19:07.887Z</time>
      </trkpt>
      <trkpt lat="44.373679" lon="8.443489">
        <ele>172.59</ele>
        <time>2024-06-15T08:19:15.887Z</time>
      </trkpt>
      <trkpt lat="44.373807" lon="8.443285">
        <ele>173.18</ele>
        <time>2024-06-15T08:19:25.887Z</time>
      </trkpt>
      <trkpt lat="44.373885" lon="8.443174">
        <ele>173.94</ele>
        <time>2024-06-15T08:19:30.887Z</time>
      </trkpt>
      <trkpt lat="44.373960" lon="8.443070">
        <ele>175.10</ele>
        <time>2024-06-15T08:19:36.887Z</time>
      </trkpt>
      <trkpt lat="44.373967" lon="8.443049">
        <ele>175.41</ele>
        <time>2024-06-15T08:19:37.887Z</time>
      </trkpt>
      <trkpt lat="44.373989" lon="8.443024">
        <ele>175.82</ele>
        <time>2024-06-15T08:19:38.887Z</time>
      </trkpt>
      <trkpt lat="44.374050" lon="8.442979">
        <ele>176.73</ele>
        <time>2024-06-15T08:19:42.887Z</time>
      </trkpt>
      <trkpt lat="44.374090" lon="8.442968">
        <ele>177.21</ele>
        <time>2024-06-15T08:19:44.887Z</time>
      </trkpt>
      <trkpt lat="44.374196" lon="8.442976">
        <ele>178.09</ele>
        <time>2024-06-15T08:19:49.887Z</time>
      </trkpt>
      <trkpt lat="44.374296" lon="8.442956">
        <ele>179.49</ele>
        <time>2024-06-15T08:19:54.887Z</time>
      </trkpt>
      <trkpt lat="44.374348" lon="8.442937">
        <ele>180.36</ele>
        <time>2024-06-15T08:19:57.887Z</time>
      </trkpt>
      <trkpt lat="44.374439" lon="8.442871">
        <ele>182.27</ele>
        <time>2024-06-15T08:20:02.887Z</time>
      </trkpt>
      <trkpt lat="44.374525" lon="8.442718">
        <ele>186.17</ele>
        <time>2024-06-15T08:20:09.887Z</time>
      </trkpt>
      <trkpt lat="44.374553" lon="8.442689">
        <ele>187.24</ele>
        <time>2024-06-15T08:20:11.887Z</time>
      </trkpt>
      <trkpt lat="44.374585" lon="8.442677">
        <ele>187.92</ele>
        <time>2024-06-15T08:20:13.887Z</time>
      </trkpt>
      <trkpt lat="44.374658" lon="8.442681">
        <ele>188.70</ele>
        <time>2024-06-15T08:20:17.887Z</time>
      </trkpt>
      <trkpt lat="44.374797" lon="8.442705">
        <ele>189.91</ele>
        <time>2024-06-15T08:20:24.887Z</time>
      </trkpt>
      <trkpt lat="44.374848" lon="8.442690">
        <ele>190.96</ele>
        <time>2024-06-15T08:20:26.887Z</time>
      </trkpt>
      <trkpt lat="44.374943" lon="8.442618">
        <ele>194.18</ele>
        <time>2024-06-15T08:20:32.887Z</time>
      </trkpt>
      <trkpt lat="44.375046" lon="8.442569">
        <ele>196.74</ele>
        <time>2024-06-15T08:20:37.887Z</time>
      </trkpt>
      <trkpt lat="44.375101" lon="8.442545">
        <ele>198.13</ele>
        <time>2024-06-15T08:20:40.887Z</time>
      </trkpt>
      <trkpt lat="44.375353" lon="8.442405">
        <ele>204.67</ele>
        <time>2024-06-15T08:20:54.887Z</time>
      </trkpt>
      <trkpt lat="44.375431" lon="8.442351">
        <ele>206.99</ele>
        <time>2024-06-15T08:20:59.887Z</time>
      </trkpt>
      <trkpt lat="44.375641" lon="8.442237">
        <ele>211.37</ele>
        <time>2024-06-15T08:21:10.887Z</time>
      </trkpt>
      <trkpt lat="44.375734" lon="8.442175">
        <ele>213.17</ele>
        <time>2024-06-15T08:21:15.887Z</time>
      </trkpt>
      <trkpt lat="44.375890" lon="8.442042">
        <ele>215.73</ele>
        <time>2024-06-15T08:21:25.887Z</time>
      </trkpt>
      <trkpt lat="44.376092" lon="8.441812">
        <ele>221.55</ele>
        <time>2024-06-15T08:21:38.887Z</time>
      </trkpt>
      <trkpt lat="44.376161" lon="8.441767">
        <ele>222.10</ele>
        <time>2024-06-15T08:21:42.887Z</time>
      </trkpt>
      <trkpt lat="44.376221" lon="8.441748">
        <ele>221.52</ele>
        <time>2024-06-15T08:21:45.887Z</time>
      </trkpt>
      <trkpt lat="44.376269" lon="8.441748">
        <ele>220.24</ele>
        <time>2024-06-15T08:21:48.887Z</time>
      </trkpt>
      <trkpt lat="44.376392" lon="8.441773">
        <ele>216.16</ele>
        <time>2024-06-15T08:21:54.887Z</time>
      </trkpt>
      <trkpt lat="44.376452" lon="8.441773">
        <ele>214.97</ele>
        <time>2024-06-15T08:21:57.887Z</time>
      </trkpt>
      <trkpt lat="44.376541" lon="8.441725">
        <ele>215.52</ele>
        <time>2024-06-15T08:22:02.887Z</time>
      </trkpt>
      <trkpt lat="44.376608" lon="8.441619">
        <ele>219.08</ele>
        <time>2024-06-15T08:22:07.887Z</time>
      </trkpt>
      <trkpt lat="44.376667" lon="8.441572">
        <ele>220.44</ele>
        <time>2024-06-15T08:22:11.887Z</time>
      </trkpt>
      <trkpt lat="44.376771" lon="8.441559">
        <ele>219.42</ele>
        <time>2024-06-15T08:22:16.887Z</time>
      </trkpt>
      <trkpt lat="44.376854" lon="8.441493">
        <ele>220.94</ele>
        <time>2024-06-15T08:22:21.887Z</time>
      </trkpt>
      <trkpt lat="44.376916" lon="8.441431">
        <ele>222.27</ele>
        <time>2024-06-15T08:22:25.887Z</time>
      </trkpt>
      <trkpt lat="44.376966" lon="8.441361">
        <ele>223.95</ele>
        <time>2024-06-15T08:22:28.887Z</time>
      </trkpt>
      <trkpt lat="44.377035" lon="8.441295">
        <ele>224.29</ele>
        <time>2024-06-15T08:22:33.887Z</time>
      </trkpt>
      <trkpt lat="44.377211" lon="8.441071">
        <ele>225.62</ele>
        <time>2024-06-15T08:22:45.887Z</time>
      </trkpt>
      <trkpt lat="44.377325" lon="8.440904">
        <ele>227.10</ele>
        <time>2024-06-15T08:22:53.887Z</time>
      </trkpt>
      <trkpt lat="44.377419" lon="8.440694">
        <ele>229.61</ele>
        <time>2024-06-15T08:23:02.887Z</time>
      </trkpt>
      <trkpt lat="44.377443" lon="8.440594">
        <ele>230.77</ele>
        <time>2024-06-15T08:23:06.887Z</time>
      </trkpt>
      <trkpt lat="44.377460" lon="8.440458">
        <ele>232.50</ele>
        <time>2024-06-15T08:23:11.887Z</time>
      </trkpt>
      <trkpt lat="44.377458" lon="8.440373">
        <ele>234.06</ele>
        <time>2024-06-15T08:23:14.887Z</time>
      </trkpt>
      <trkpt lat="44.377478" lon="8.440184">
        <ele>236.60</ele>
        <time>2024-06-15T08:23:21.887Z</time>
      </trkpt>
      <trkpt lat="44.377480" lon="8.440091">
        <ele>238.51</ele>
        <time>2024-06-15T08:23:25.887Z</time>
      </trkpt>
      <trkpt lat="44.377512" lon="8.439976">
        <ele>239.58</ele>
        <time>2024-06-15T08:23:29.887Z</time>
      </trkpt>
      <trkpt lat="44.377621" lon="8.439720">
        <ele>241.02</ele>
        <time>2024-06-15T08:23:40.887Z</time>
      </trkpt>
      <trkpt lat="44.377681" lon="8.439620">
        <ele>240.83</ele>
        <time>2024-06-15T08:23:45.887Z</time>
      </trkpt>
      <trkpt lat="44.377724" lon="8.439522">
        <ele>241.58</ele>
        <time>2024-06-15T08:23:49.887Z</time>
      </trkpt>
      <trkpt lat="44.377803" lon="8.439312">
        <ele>244.45</ele>
        <time>2024-06-15T08:23:58.887Z</time>
      </trkpt>
      <trkpt lat="44.377921" lon="8.438969">
        <ele>249.33</ele>
        <time>2024-06-15T08:24:12.887Z</time>
      </trkpt>
      <trkpt lat="44.377978" lon="8.438843">
        <ele>249.27</ele>
        <time>2024-06-15T08:24:17.887Z</time>
      </trkpt>
      <trkpt lat="44.378034" lon="8.438744">
        <ele>248.25</ele>
        <time>2024-06-15T08:24:22.887Z</time>
      </trkpt>
      <trkpt lat="44.378074" lon="8.438618">
        <ele>248.69</ele>
        <time>2024-06-15T08:24:27.887Z</time>
      </trkpt>
      <trkpt lat="44.378083" lon="8.438498">
        <ele>250.98</ele>
        <time>2024-06-15T08:24:31.887Z</time>
      </trkpt>
      <trkpt lat="44.378069" lon="8.438428">
        <ele>253.55</ele>
        <time>2024-06-15T08:24:34.887Z</time>
      </trkpt>
      <trkpt lat="44.378068" lon="8.438285">
        <ele>257.54</ele>
        <time>2024-06-15T08:24:40.887Z</time>
      </trkpt>
      <trkpt lat="44.378082" lon="8.438207">
        <ele>259.20</ele>
        <time>2024-06-15T08:24:43.887Z</time>
      </trkpt>
      <trkpt lat="44.378101" lon="8.438156">
        <ele>259.96</ele>
        <time>2024-06-15T08:24:45.887Z</time>
      </trkpt>
      <trkpt lat="44.378210" lon="8.438090">
        <ele>257.35</ele>
        <time>2024-06-15T08:24:51.887Z</time>
      </trkpt>
      <trkpt lat="44.378405" lon="8.437838">
        <ele>258.50</ele>
        <time>2024-06-15T08:25:04.887Z</time>
      </trkpt>
      <trkpt lat="44.378433" lon="8.437766">
        <ele>260.21</ele>
        <time>2024-06-15T08:25:07.887Z</time>
      </trkpt>
      <trkpt lat="44.378490" lon="8.437712">
        <ele>260.44</ele>
        <time>2024-06-15T08:25:11.887Z</time>
      </trkpt>
      <trkpt lat="44.378563" lon="8.437694">
        <ele>259.24</ele>
        <time>2024-06-15T08:25:15.887Z</time>
      </trkpt>
      <trkpt lat="44.378707" lon="8.437613">
        <ele>259.59</ele>
        <time>2024-06-15T08:25:22.887Z</time>
      </trkpt>
      <trkpt lat="44.378853" lon="8.437550">
        <ele>259.14</ele>
        <time>2024-06-15T08:25:30.887Z</time>
      </trkpt>
      <trkpt lat="44.378919" lon="8.437484">
        <ele>262.16</ele>
        <time>2024-06-15T08:25:34.887Z</time>
      </trkpt>
      <trkpt lat="44.378988" lon="8.437376">
        <ele>261.00</ele>
        <time>2024-06-15T08:25:40.887Z</time>
      </trkpt>
      <trkpt lat="44.379027" lon="8.437283">
        <ele>262.55</ele>
        <time>2024-06-15T08:25:44.887Z</time>
      </trkpt>
      <trkpt lat="44.379048" lon="8.437154">
        <ele>265.73</ele>
        <time>2024-06-15T08:25:49.887Z</time>
      </trkpt>
      <trkpt lat="44.379091" lon="8.437046">
        <ele>267.39</ele>
        <time>2024-06-15T08:25:53.887Z</time>
      </trkpt>
      <trkpt lat="44.379127" lon="8.436908">
        <ele>270.54</ele>
        <time>2024-06-15T08:25:58.887Z</time>
      </trkpt>
      <trkpt lat="44.379166" lon="8.436827">
        <ele>271.79</ele>
        <time>2024-06-15T08:26:02.887Z</time>
      </trkpt>
      <trkpt lat="44.379245" lon="8.436710">
        <ele>272.97</ele>
        <time>2024-06-15T08:26:08.887Z</time>
      </trkpt>
      <trkpt lat="44.379370" lon="8.436485">
        <ele>276.12</ele>
        <time>2024-06-15T08:26:18.887Z</time>
      </trkpt>
      <trkpt lat="44.379415" lon="8.436356">
        <ele>277.84</ele>
        <time>2024-06-15T08:26:24.887Z</time>
      </trkpt>
      <trkpt lat="44.379432" lon="8.436110">
        <ele>283.06</ele>
        <time>2024-06-15T08:26:33.887Z</time>
      </trkpt>
      <trkpt lat="44.379417" lon="8.435876">
        <ele>289.75</ele>
        <time>2024-06-15T08:26:42.887Z</time>
      </trkpt>
      <trkpt lat="44.379402" lon="8.435789">
        <ele>292.84</ele>
        <time>2024-06-15T08:26:46.887Z</time>
      </trkpt>
      <trkpt lat="44.379402" lon="8.435711">
        <ele>294.94</ele>
        <time>2024-06-15T08:26:49.887Z</time>
      </trkpt>
      <trkpt lat="44.379405" lon="8.435623">
        <ele>297.27</ele>
        <time>2024-06-15T08:26:52.887Z</time>
      </trkpt>
      <trkpt lat="44.379422" lon="8.435570">
        <ele>298.09</ele>
        <time>2024-06-15T08:26:54.887Z</time>
      </trkpt>
      <trkpt lat="44.379451" lon="8.435539">
        <ele>297.73</ele>
        <time>2024-06-15T08:26:56.887Z</time>
      </trkpt>
      <trkpt lat="44.379503" lon="8.435519">
        <ele>296.29</ele>
        <time>2024-06-15T08:26:59.887Z</time>
      </trkpt>
      <trkpt lat="44.379542" lon="8.435484">
        <ele>296.26</ele>
        <time>2024-06-15T08:27:01.887Z</time>
      </trkpt>
      <trkpt lat="44.379603" lon="8.435384">
        <ele>298.94</ele>
        <time>2024-06-15T08:27:06.887Z</time>
      </trkpt>
      <trkpt lat="44.379687" lon="8.435315">
        <ele>300.08</ele>
        <time>2024-06-15T08:27:11.887Z</time>
      </trkpt>
      <trkpt lat="44.380007" lon="8.435087">
        <ele>303.26</ele>
        <time>2024-06-15T08:27:29.887Z</time>
      </trkpt>
      <trkpt lat="44.380125" lon="8.435024">
        <ele>302.83</ele>
        <time>2024-06-15T08:27:35.887Z</time>
      </trkpt>
      <trkpt lat="44.380303" lon="8.434904">
        <ele>303.17</ele>
        <time>2024-06-15T08:27:46.887Z</time>
      </trkpt>
      <trkpt lat="44.380371" lon="8.434766">
        <ele>305.55</ele>
        <time>2024-06-15T08:27:52.887Z</time>
      </trkpt>
      <trkpt lat="44.380416" lon="8.434655">
        <ele>307.48</ele>
        <time>2024-06-15T08:27:57.887Z</time>
      </trkpt>
      <trkpt lat="44.380436" lon="8.434505">
        <ele>310.65</ele>
        <time>2024-06-15T08:28:03.887Z</time>
      </trkpt>
      <trkpt lat="44.380474" lon="8.434304">
        <ele>314.73</ele>
        <time>2024-06-15T08:28:10.887Z</time>
      </trkpt>
      <trkpt lat="44.380577" lon="8.433986">
        <ele>320.27</ele>
        <time>2024-06-15T08:28:23.887Z</time>
      </trkpt>
      <trkpt lat="44.380631" lon="8.433896">
        <ele>321.59</ele>
        <time>2024-06-15T08:28:27.887Z</time>
      </trkpt>
      <trkpt lat="44.380697" lon="8.433815">
        <ele>323.03</ele>
        <time>2024-06-15T08:28:32.887Z</time>
      </trkpt>
      <trkpt lat="44.380753" lon="8.433779">
        <ele>323.53</ele>
        <time>2024-06-15T08:28:35.887Z</time>
      </trkpt>
      <trkpt lat="44.380854" lon="8.433758">
        <ele>323.87</ele>
        <time>2024-06-15T08:28:40.887Z</time>
      </trkpt>
      <trkpt lat="44.381122" lon="8.433650">
        <ele>329.88</ele>
        <time>2024-06-15T08:28:55.887Z</time>
      </trkpt>
      <trkpt lat="44.381278" lon="8.433548">
        <ele>333.04</ele>
        <time>2024-06-15T08:29:04.887Z</time>
      </trkpt>
      <trkpt lat="44.381330" lon="8.433524">
        <ele>333.60</ele>
        <time>2024-06-15T08:29:07.887Z</time>
      </trkpt>
      <trkpt lat="44.381416" lon="8.433506">
        <ele>333.75</ele>
        <time>2024-06-15T08:29:11.887Z</time>
      </trkpt>
      <trkpt lat="44.381468" lon="8.433528">
        <ele>333.59</ele>
        <time>2024-06-15T08:29:14.887Z</time>
      </trkpt>
      <trkpt lat="44.381516" lon="8.433562">
        <ele>333.89</ele>
        <time>2024-06-15T08:29:17.887Z</time>
      </trkpt>
      <trkpt lat="44.381565" lon="8.433640">
        <ele>335.47</ele>
        <time>2024-06-15T08:29:21.887Z</time>
      </trkpt>
      <trkpt lat="44.381581" lon="8.433684">
        <ele>336.81</ele>
        <time>2024-06-15T08:29:22.887Z</time>
      </trkpt>
      <trkpt lat="44.381574" lon="8.433725">
        <ele>337.40</ele>
        <time>2024-06-15T08:29:24.887Z</time>
      </trkpt>
      <trkpt lat="44.381540" lon="8.433812">
        <ele>338.43</ele>
        <time>2024-06-15T08:29:27.887Z</time>
      </trkpt>
      <trkpt lat="44.381499" lon="8.433887">
        <ele>339.14</ele>
        <time>2024-06-15T08:29:31.887Z</time>
      </trkpt>
      <trkpt lat="44.381366" lon="8.433994">
        <ele>337.04</ele>
        <time>2024-06-15T08:29:39.887Z</time>
      </trkpt>
      <trkpt lat="44.381274" lon="8.434049">
        <ele>334.42</ele>
        <time>2024-06-15T08:29:44.887Z</time>
      </trkpt>
      <trkpt lat="44.381180" lon="8.434190">
        <ele>332.95</ele>
        <time>2024-06-15T08:29:52.887Z</time>
      </trkpt>
      <trkpt lat="44.381147" lon="8.434262">
        <ele>332.67</ele>
        <time>2024-06-15T08:29:55.887Z</time>
      </trkpt>
      <trkpt lat="44.381100" lon="8.434607">
        <ele>336.24</ele>
        <time>2024-06-15T08:30:08.887Z</time>
      </trkpt>
      <trkpt lat="44.381107" lon="8.434886">
        <ele>340.41</ele>
        <time>2024-06-15T08:30:18.887Z</time>
      </trkpt>
      <trkpt lat="44.381098" lon="8.435018">
        <ele>341.05</ele>
        <time>2024-06-15T08:30:22.887Z</time>
      </trkpt>
      <trkpt lat="44.381107" lon="8.435246">
        <ele>343.09</ele>
        <time>2024-06-15T08:30:31.887Z</time>
      </trkpt>
      <trkpt lat="44.381126" lon="8.435336">
        <ele>344.10</ele>
        <time>2024-06-15T08:30:34.887Z</time>
      </trkpt>
      <trkpt lat="44.381166" lon="8.435418">
        <ele>345.39</ele>
        <time>2024-06-15T08:30:38.887Z</time>
      </trkpt>
      <trkpt lat="44.381218" lon="8.435459">
        <ele>346.68</ele>
        <time>2024-06-15T08:30:41.887Z</time>
      </trkpt>
      <trkpt lat="44.381260" lon="8.435440">
        <ele>348.18</ele>
        <time>2024-06-15T08:30:43.887Z</time>
      </trkpt>
      <trkpt lat="44.381452" lon="8.435211">
        <ele>356.82</ele>
        <time>2024-06-15T08:30:57.887Z</time>
      </trkpt>
      <trkpt lat="44.381525" lon="8.435103">
        <ele>360.45</ele>
        <time>2024-06-15T08:31:04.887Z</time>
      </trkpt>
      <trkpt lat="44.381628" lon="8.434982">
        <ele>364.92</ele>
        <time>2024-06-15T08:31:11.887Z</time>
      </trkpt>
      <trkpt lat="44.381689" lon="8.434938">
        <ele>366.99</ele>
        <time>2024-06-15T08:31:15.887Z</time>
      </trkpt>
      <trkpt lat="44.381757" lon="8.434913">
        <ele>368.77</ele>
        <time>2024-06-15T08:31:19.887Z</time>
      </trkpt>
      <trkpt lat="44.381832" lon="8.434901">
        <ele>370.34</ele>
        <time>2024-06-15T08:31:22.887Z</time>
      </trkpt>
      <trkpt lat="44.381888" lon="8.434913">
        <ele>370.90</ele>
        <time>2024-06-15T08:31:25.887Z</time>
      </trkpt>
      <trkpt lat="44.381979" lon="8.434913">
        <ele>372.42</ele>
        <time>2024-06-15T08:31:30.887Z</time>
      </trkpt>
      <trkpt lat="44.382059" lon="8.434898">
        <ele>374.40</ele>
        <time>2024-06-15T08:31:34.887Z</time>
      </trkpt>
      <trkpt lat="44.382113" lon="8.434909">
        <ele>374.87</ele>
        <time>2024-06-15T08:31:37.887Z</time>
      </trkpt>
      <trkpt lat="44.382240" lon="8.434899">
        <ele>377.52</ele>
        <time>2024-06-15T08:31:44.887Z</time>
      </trkpt>
      <trkpt lat="44.382601" lon="8.434902">
        <ele>382.16</ele>
        <time>2024-06-15T08:32:02.887Z</time>
      </trkpt>
      <trkpt lat="44.382743" lon="8.434926">
        <ele>381.73</ele>
        <time>2024-06-15T08:32:09.887Z</time>
      </trkpt>
      <trkpt lat="44.383098" lon="8.435031">
        <ele>378.09</ele>
        <time>2024-06-15T08:32:28.887Z</time>
      </trkpt>
      <trkpt lat="44.383233" lon="8.435079">
        <ele>376.62</ele>
        <time>2024-06-15T08:32:35.887Z</time>
      </trkpt>
      <trkpt lat="44.383341" lon="8.435106">
        <ele>375.93</ele>
        <time>2024-06-15T08:32:40.887Z</time>
      </trkpt>
      <trkpt lat="44.383449" lon="8.435106">
        <ele>376.18</ele>
        <time>2024-06-15T08:32:46.887Z</time>
      </trkpt>
      <trkpt lat="44.383540" lon="8.435095">
        <ele>376.62</ele>
        <time>2024-06-15T08:32:50.887Z</time>
      </trkpt>
      <trkpt lat="44.383727" lon="8.435026">
        <ele>378.69</ele>
        <time>2024-06-15T08:33:00.887Z</time>
      </trkpt>
      <trkpt lat="44.383792" lon="8.434960">
        <ele>381.34</ele>
        <time>2024-06-15T08:33:05.887Z</time>
      </trkpt>
      <trkpt lat="44.383853" lon="8.434924">
        <ele>382.85</ele>
        <time>2024-06-15T08:33:08.887Z</time>
      </trkpt>
      <trkpt lat="44.383926" lon="8.434920">
        <ele>383.31</ele>
        <time>2024-06-15T08:33:12.887Z</time>
      </trkpt>
      <trkpt lat="44.383974" lon="8.434929">
        <ele>383.41</ele>
        <time>2024-06-15T08:33:14.887Z</time>
      </trkpt>
      <trkpt lat="44.384032" lon="8.434954">
        <ele>382.98</ele>
        <time>2024-06-15T08:33:18.887Z</time>
      </trkpt>
      <trkpt lat="44.384170" lon="8.434958">
        <ele>384.51</ele>
        <time>2024-06-15T08:33:25.887Z</time>
      </trkpt>
      <trkpt lat="44.384280" lon="8.434954">
        <ele>385.55</ele>
        <time>2024-06-15T08:33:30.887Z</time>
      </trkpt>
      <trkpt lat="44.384374" lon="8.434927">
        <ele>387.08</ele>
        <time>2024-06-15T08:33:35.887Z</time>
      </trkpt>
      <trkpt lat="44.384614" lon="8.434767">
        <ele>394.22</ele>
        <time>2024-06-15T08:33:49.887Z</time>
      </trkpt>
      <trkpt lat="44.384703" lon="8.434722">
        <ele>395.51</ele>
        <time>2024-06-15T08:33:54.887Z</time>
      </trkpt>
      <trkpt lat="44.384780" lon="8.434662">
        <ele>397.40</ele>
        <time>2024-06-15T08:33:59.887Z</time>
      </trkpt>
      <trkpt lat="44.384935" lon="8.434498">
        <ele>401.96</ele>
        <time>2024-06-15T08:34:09.887Z</time>
      </trkpt>
      <trkpt lat="44.385011" lon="8.434435">
        <ele>403.08</ele>
        <time>2024-06-15T08:34:13.887Z</time>
      </trkpt>
      <trkpt lat="44.385057" lon="8.434410">
        <ele>403.36</ele>
        <time>2024-06-15T08:34:16.887Z</time>
      </trkpt>
      <trkpt lat="44.385105" lon="8.434347">
        <ele>405.13</ele>
        <time>2024-06-15T08:34:20.887Z</time>
      </trkpt>
      <trkpt lat="44.385173" lon="8.434320">
        <ele>405.68</ele>
        <time>2024-06-15T08:34:24.887Z</time>
      </trkpt>
      <trkpt lat="44.385218" lon="8.434341">
        <ele>405.25</ele>
        <time>2024-06-15T08:34:26.887Z</time>
      </trkpt>
      <trkpt lat="44.385255" lon="8.434379">
        <ele>405.04</ele>
        <time>2024-06-15T08:34:28.887Z</time>
      </trkpt>
      <trkpt lat="44.385285" lon="8.434545">
        <ele>402.10</ele>
        <time>2024-06-15T08:34:35.887Z</time>
      </trkpt>
      <trkpt lat="44.385327" lon="8.434702">
        <ele>400.54</ele>
        <time>2024-06-15T08:34:41.887Z</time>
      </trkpt>
      <trkpt lat="44.385349" lon="8.434752">
        <ele>400.36</ele>
        <time>2024-06-15T08:34:43.887Z</time>
      </trkpt>
      <trkpt lat="44.385380" lon="8.434799">
        <ele>400.54</ele>
        <time>2024-06-15T08:34:46.887Z</time>
      </trkpt>
      <trkpt lat="44.385422" lon="8.434835">
        <ele>401.47</ele>
        <time>2024-06-15T08:34:48.887Z</time>
      </trkpt>
      <trkpt lat="44.385483" lon="8.434853">
        <ele>403.76</ele>
        <time>2024-06-15T08:34:51.887Z</time>
      </trkpt>
      <trkpt lat="44.385629" lon="8.434803">
        <ele>412.92</ele>
        <time>2024-06-15T08:34:59.887Z</time>
      </trkpt>
      <trkpt lat="44.385696" lon="8.434801">
        <ele>416.57</ele>
        <time>2024-06-15T08:35:03.887Z</time>
      </trkpt>
      <trkpt lat="44.385754" lon="8.434850">
        <ele>418.02</ele>
        <time>2024-06-15T08:35:06.887Z</time>
      </trkpt>
      <trkpt lat="44.385847" lon="8.435077">
        <ele>415.81</ele>
        <time>2024-06-15T08:35:16.887Z</time>
      </trkpt>
      <trkpt lat="44.385889" lon="8.435169">
        <ele>415.09</ele>
        <time>2024-06-15T08:35:20.887Z</time>
      </trkpt>
      <trkpt lat="44.385921" lon="8.435210">
        <ele>415.23</ele>
        <time>2024-06-15T08:35:22.887Z</time>
      </trkpt>
      <trkpt lat="44.385974" lon="8.435261">
        <ele>415.69</ele>
        <time>2024-06-15T08:35:26.887Z</time>
      </trkpt>
      <trkpt lat="44.386030" lon="8.435279">
        <ele>417.20</ele>
        <time>2024-06-15T08:35:29.887Z</time>
      </trkpt>
      <trkpt lat="44.386075" lon="8.435277">
        <ele>418.88</ele>
        <time>2024-06-15T08:35:31.887Z</time>
      </trkpt>
      <trkpt lat="44.386221" lon="8.435196">
        <ele>426.44</ele>
        <time>2024-06-15T08:35:40.887Z</time>
      </trkpt>
      <trkpt lat="44.386324" lon="8.435113">
        <ele>431.64</ele>
        <time>2024-06-15T08:35:46.887Z</time>
      </trkpt>
      <trkpt lat="44.386372" lon="8.435111">
        <ele>432.38</ele>
        <time>2024-06-15T08:35:49.887Z</time>
      </trkpt>
      <trkpt lat="44.386414" lon="8.435149">
        <ele>431.66</ele>
        <time>2024-06-15T08:35:51.887Z</time>
      </trkpt>
      <trkpt lat="44.386515" lon="8.435329">
        <ele>426.24</ele>
        <time>2024-06-15T08:36:00.887Z</time>
      </trkpt>
      <trkpt lat="44.386542" lon="8.435358">
        <ele>425.50</ele>
        <time>2024-06-15T08:36:01.887Z</time>
      </trkpt>
      <trkpt lat="44.386595" lon="8.435378">
        <ele>425.53</ele>
        <time>2024-06-15T08:36:04.887Z</time>
      </trkpt>
      <trkpt lat="44.386651" lon="8.435371">
        <ele>426.80</ele>
        <time>2024-06-15T08:36:07.887Z</time>
      </trkpt>
      <trkpt lat="44.386719" lon="8.435338">
        <ele>429.33</ele>
        <time>2024-06-15T08:36:11.887Z</time>
      </trkpt>
      <trkpt lat="44.386863" lon="8.435232">
        <ele>435.38</ele>
        <time>2024-06-15T08:36:20.887Z</time>
      </trkpt>
      <trkpt lat="44.386935" lon="8.435198">
        <ele>437.18</ele>
        <time>2024-06-15T08:36:24.887Z</time>
      </trkpt>
      <trkpt lat="44.386970" lon="8.435191">
        <ele>437.63</ele>
        <time>2024-06-15T08:36:26.887Z</time>
      </trkpt>
      <trkpt lat="44.387067" lon="8.435207">
        <ele>437.53</ele>
        <time>2024-06-15T08:36:30.887Z</time>
      </trkpt>
      <trkpt lat="44.387131" lon="8.435201">
        <ele>438.07</ele>
        <time>2024-06-15T08:36:34.887Z</time>
      </trkpt>
      <trkpt lat="44.387175" lon="8.435181">
        <ele>438.93</ele>
        <time>2024-06-15T08:36:36.887Z</time>
      </trkpt>
      <trkpt lat="44.387223" lon="8.435124">
        <ele>441.19</ele>
        <time>2024-06-15T08:36:40.887Z</time>
      </trkpt>
      <trkpt lat="44.387250" lon="8.435070">
        <ele>443.33</ele>
        <time>2024-06-15T08:36:42.887Z</time>
      </trkpt>
      <trkpt lat="44.387269" lon="8.435016">
        <ele>445.50</ele>
        <time>2024-06-15T08:36:45.887Z</time>
      </trkpt>
      <trkpt lat="44.387271" lon="8.434976">
        <ele>446.95</ele>
        <time>2024-06-15T08:36:46.887Z</time>
      </trkpt>
      <trkpt lat="44.387275" lon="8.434974">
        <ele>447.06</ele>
        <time>2024-06-15T08:36:47.887Z</time>
      </trkpt>
      <trkpt lat="44.387275" lon="8.434974">
        <ele>447.07</ele>
        <time>2024-06-15T08:36:47.887Z</time>
      </trkpt>
      <trkpt lat="44.387365" lon="8.434938">
        <ele>449.87</ele>
        <time>2024-06-15T08:36:52.887Z</time>
      </trkpt>
      <trkpt lat="44.387405" lon="8.434937">
        <ele>450.61</ele>
        <time>2024-06-15T08:36:54.887Z</time>
      </trkpt>
      <trkpt lat="44.387428" lon="8.434954">
        <ele>450.29</ele>
        <time>2024-06-15T08:36:55.887Z</time>
      </trkpt>
      <trkpt lat="44.387482" lon="8.435021">
        <ele>448.35</ele>
        <time>2024-06-15T08:36:59.887Z</time>
      </trkpt>
      <trkpt lat="44.387587" lon="8.435067">
        <ele>448.24</ele>
        <time>2024-06-15T08:37:04.887Z</time>
      </trkpt>
      <trkpt lat="44.387651" lon="8.435061">
        <ele>449.69</ele>
        <time>2024-06-15T08:37:08.887Z</time>
      </trkpt>
      <trkpt lat="44.387782" lon="8.435025">
        <ele>453.58</ele>
        <time>2024-06-15T08:37:14.887Z</time>
      </trkpt>
      <trkpt lat="44.387917" lon="8.434937">
        <ele>459.24</ele>
        <time>2024-06-15T08:37:22.887Z</time>
      </trkpt>
      <trkpt lat="44.388030" lon="8.434948">
        <ele>459.75</ele>
        <time>2024-06-15T08:37:28.887Z</time>
      </trkpt>
      <trkpt lat="44.388113" lon="8.435016">
        <ele>457.12</ele>
        <time>2024-06-15T08:37:33.887Z</time>
      </trkpt>
      <trkpt lat="44.388305" lon="8.435031">
        <ele>456.93</ele>
        <time>2024-06-15T08:37:43.887Z</time>
      </trkpt>
      <trkpt lat="44.388429" lon="8.435071">
        <ele>454.82</ele>
        <time>2024-06-15T08:37:49.887Z</time>
      </trkpt>
      <trkpt lat="44.388540" lon="8.435057">
        <ele>454.55</ele>
        <time>2024-06-15T08:37:55.887Z</time>
      </trkpt>
      <trkpt lat="44.388738" lon="8.434947">
        <ele>456.50</ele>
        <time>2024-06-15T08:38:06.887Z</time>
      </trkpt>
      <trkpt lat="44.388926" lon="8.434953">
        <ele>454.74</ele>
        <time>2024-06-15T08:38:15.887Z</time>
      </trkpt>
      <trkpt lat="44.389016" lon="8.434922">
        <ele>455.80</ele>
        <time>2024-06-15T08:38:20.887Z</time>
      </trkpt>
      <trkpt lat="44.389143" lon="8.434865">
        <ele>458.59</ele>
        <time>2024-06-15T08:38:27.887Z</time>
      </trkpt>
      <trkpt lat="44.389369" lon="8.434857">
        <ele>461.08</ele>
        <time>2024-06-15T08:38:38.887Z</time>
      </trkpt>
      <trkpt lat="44.389455" lon="8.434834">
        <ele>462.21</ele>
        <time>2024-06-15T08:38:43.887Z</time>
      </trkpt>
      <trkpt lat="44.389520" lon="8.434793">
        <ele>463.58</ele>
        <time>2024-06-15T08:38:47.887Z</time>
      </trkpt>
      <trkpt lat="44.389634" lon="8.434744">
        <ele>464.41</ele>
        <time>2024-06-15T08:38:53.887Z</time>
      </trkpt>
      <trkpt lat="44.389743" lon="8.434747">
        <ele>462.63</ele>
        <time>2024-06-15T08:38:58.887Z</time>
      </trkpt>
      <trkpt lat="44.389816" lon="8.434759">
        <ele>461.31</ele>
        <time>2024-06-15T08:39:02.887Z</time>
      </trkpt>
      <trkpt lat="44.389881" lon="8.434787">
        <ele>460.13</ele>
        <time>2024-06-15T08:39:05.887Z</time>
      </trkpt>
      <trkpt lat="44.389896" lon="8.434803">
        <ele>459.70</ele>
        <time>2024-06-15T08:39:06.887Z</time>
      </trkpt>
      <trkpt lat="44.389922" lon="8.434832">
        <ele>459.00</ele>
        <time>2024-06-15T08:39:08.887Z</time>
      </trkpt>
      <trkpt lat="44.389941" lon="8.434882">
        <ele>457.89</ele>
        <time>2024-06-15T08:39:10.887Z</time>
      </trkpt>
      <trkpt lat="44.389951" lon="8.434967">
        <ele>456.27</ele>
        <time>2024-06-15T08:39:14.887Z</time>
      </trkpt>
      <trkpt lat="44.389955" lon="8.435111">
        <ele>454.48</ele>
        <time>2024-06-15T08:39:19.887Z</time>
      </trkpt>
      <trkpt lat="44.389971" lon="8.435248">
        <ele>454.72</ele>
        <time>2024-06-15T08:39:24.887Z</time>
      </trkpt>
      <trkpt lat="44.389970" lon="8.435309">
        <ele>454.88</ele>
        <time>2024-06-15T08:39:26.887Z</time>
      </trkpt>
      <trkpt lat="44.389948" lon="8.435354">
        <ele>454.15</ele>
        <time>2024-06-15T08:39:28.887Z</time>
      </trkpt>
      <trkpt lat="44.389855" lon="8.435439">
        <ele>451.12</ele>
        <time>2024-06-15T08:39:34.887Z</time>
      </trkpt>
      <trkpt lat="44.389791" lon="8.435512">
        <ele>449.50</ele>
        <time>2024-06-15T08:39:38.887Z</time>
      </trkpt>
      <trkpt lat="44.389752" lon="8.435568">
        <ele>448.63</ele>
        <time>2024-06-15T08:39:41.887Z</time>
      </trkpt>
      <trkpt lat="44.389750" lon="8.435755">
        <ele>450.53</ele>
        <time>2024-06-15T08:39:48.887Z</time>
      </trkpt>
      <trkpt lat="44.389706" lon="8.435943">
        <ele>450.11</ele>
        <time>2024-06-15T08:39:55.887Z</time>
      </trkpt>
      <trkpt lat="44.389716" lon="8.436044">
        <ele>450.85</ele>
        <time>2024-06-15T08:39:59.887Z</time>
      </trkpt>
      <trkpt lat="44.389765" lon="8.436232">
        <ele>453.27</ele>
        <time>2024-06-15T08:40:06.887Z</time>
      </trkpt>
      <trkpt lat="44.389772" lon="8.436367">
        <ele>454.76</ele>
        <time>2024-06-15T08:40:11.887Z</time>
      </trkpt>
      <trkpt lat="44.389750" lon="8.436465">
        <ele>456.06</ele>
        <time>2024-06-15T08:40:15.887Z</time>
      </trkpt>
      <trkpt lat="44.389678" lon="8.436530">
        <ele>456.20</ele>
        <time>2024-06-15T08:40:19.887Z</time>
      </trkpt>
      <trkpt lat="44.389564" lon="8.436561">
        <ele>455.35</ele>
        <time>2024-06-15T08:40:25.887Z</time>
      </trkpt>
      <trkpt lat="44.389502" lon="8.436596">
        <ele>455.98</ele>
        <time>2024-06-15T08:40:29.887Z</time>
      </trkpt>
      <trkpt lat="44.389456" lon="8.436648">
        <ele>457.73</ele>
        <time>2024-06-15T08:40:32.887Z</time>
      </trkpt>
      <trkpt lat="44.389374" lon="8.436720">
        <ele>460.19</ele>
        <time>2024-06-15T08:40:37.887Z</time>
      </trkpt>
      <trkpt lat="44.389198" lon="8.436862">
        <ele>462.42</ele>
        <time>2024-06-15T08:40:47.887Z</time>
      </trkpt>
      <trkpt lat="44.389093" lon="8.437021">
        <ele>464.01</ele>
        <time>2024-06-15T08:40:55.887Z</time>
      </trkpt>
      <trkpt lat="44.388997" lon="8.437254">
        <ele>465.55</ele>
        <time>2024-06-15T08:41:05.887Z</time>
      </trkpt>
      <trkpt lat="44.388998" lon="8.437495">
        <ele>468.37</ele>
        <time>2024-06-15T08:41:14.887Z</time>
      </trkpt>
      <trkpt lat="44.389031" lon="8.437630">
        <ele>473.10</ele>
        <time>2024-06-15T08:41:20.887Z</time>
      </trkpt>
      <trkpt lat="44.389121" lon="8.437897">
        <ele>481.09</ele>
        <time>2024-06-15T08:41:31.887Z</time>
      </trkpt>
      <trkpt lat="44.389126" lon="8.438004">
        <ele>482.41</ele>
        <time>2024-06-15T08:41:35.887Z</time>
      </trkpt>
      <trkpt lat="44.389112" lon="8.438125">
        <ele>483.15</ele>
        <time>2024-06-15T08:41:40.887Z</time>
      </trkpt>
      <trkpt lat="44.389085" lon="8.438229">
        <ele>483.51</ele>
        <time>2024-06-15T08:41:44.887Z</time>
      </trkpt>
      <trkpt lat="44.389079" lon="8.438330">
        <ele>485.33</ele>
        <time>2024-06-15T08:41:48.887Z</time>
      </trkpt>
      <trkpt lat="44.389103" lon="8.438459">
        <ele>489.43</ele>
        <time>2024-06-15T08:41:53.887Z</time>
      </trkpt>
      <trkpt lat="44.389100" lon="8.438520">
        <ele>490.84</ele>
        <time>2024-06-15T08:41:56.887Z</time>
      </trkpt>
      <trkpt lat="44.389037" lon="8.438656">
        <ele>492.82</ele>
        <time>2024-06-15T08:42:02.887Z</time>
      </trkpt>
      <trkpt lat="44.388982" lon="8.438738">
        <ele>494.54</ele>
        <time>2024-06-15T08:42:06.887Z</time>
      </trkpt>
      <trkpt lat="44.388946" lon="8.438756">
        <ele>494.77</ele>
        <time>2024-06-15T08:42:08.887Z</time>
      </trkpt>
      <trkpt lat="44.388883" lon="8.438762">
        <ele>494.73</ele>
        <time>2024-06-15T08:42:11.887Z</time>
      </trkpt>
      <trkpt lat="44.388718" lon="8.438683">
        <ele>493.41</ele>
        <time>2024-06-15T08:42:20.887Z</time>
      </trkpt>
      <trkpt lat="44.388651" lon="8.438675">
        <ele>494.23</ele>
        <time>2024-06-15T08:42:24.887Z</time>
      </trkpt>
      <trkpt lat="44.388560" lon="8.438691">
        <ele>496.32</ele>
        <time>2024-06-15T08:42:28.887Z</time>
      </trkpt>
      <trkpt lat="44.388430" lon="8.438750">
        <ele>499.99</ele>
        <time>2024-06-15T08:42:35.887Z</time>
      </trkpt>
      <trkpt lat="44.388341" lon="8.438838">
        <ele>503.74</ele>
        <time>2024-06-15T08:42:41.887Z</time>
      </trkpt>
      <trkpt lat="44.388243" lon="8.438954">
        <ele>508.14</ele>
        <time>2024-06-15T08:42:48.887Z</time>
      </trkpt>
      <trkpt lat="44.388103" lon="8.439220">
        <ele>517.42</ele>
        <time>2024-06-15T08:43:00.887Z</time>
      </trkpt>
      <trkpt lat="44.388047" lon="8.439290">
        <ele>519.62</ele>
        <time>2024-06-15T08:43:04.887Z</time>
      </trkpt>
      <trkpt lat="44.387978" lon="8.439360">
        <ele>521.63</ele>
        <time>2024-06-15T08:43:09.887Z</time>
      </trkpt>
      <trkpt lat="44.387763" lon="8.439496">
        <ele>525.07</ele>
        <time>2024-06-15T08:43:21.887Z</time>
      </trkpt>
      <trkpt lat="44.387699" lon="8.439579">
        <ele>527.73</ele>
        <time>2024-06-15T08:43:25.887Z</time>
      </trkpt>
      <trkpt lat="44.387628" lon="8.439687">
        <ele>531.40</ele>
        <time>2024-06-15T08:43:31.887Z</time>
      </trkpt>
      <trkpt lat="44.387565" lon="8.439741">
        <ele>533.37</ele>
        <time>2024-06-15T08:43:35.887Z</time>
      </trkpt>
      <trkpt lat="44.387471" lon="8.439772">
        <ele>534.68</ele>
        <time>2024-06-15T08:43:39.887Z</time>
      </trkpt>
      <trkpt lat="44.387363" lon="8.439836">
        <ele>537.02</ele>
        <time>2024-06-15T08:43:45.887Z</time>
      </trkpt>
      <trkpt lat="44.387148" lon="8.440057">
        <ele>543.93</ele>
        <time>2024-06-15T08:43:59.887Z</time>
      </trkpt>
      <trkpt lat="44.387096" lon="8.440137">
        <ele>546.17</ele>
        <time>2024-06-15T08:44:03.887Z</time>
      </trkpt>
      <trkpt lat="44.387023" lon="8.440225">
        <ele>548.03</ele>
        <time>2024-06-15T08:44:08.887Z</time>
      </trkpt>
      <trkpt lat="44.386897" lon="8.440327">
        <ele>548.94</ele>
        <time>2024-06-15T08:44:16.887Z</time>
      </trkpt>
      <trkpt lat="44.386748" lon="8.440487">
        <ele>549.07</ele>
        <time>2024-06-15T08:44:25.887Z</time>
      </trkpt>
      <trkpt lat="44.386708" lon="8.440507">
        <ele>548.54</ele>
        <time>2024-06-15T08:44:27.887Z</time>
      </trkpt>
      <trkpt lat="44.386641" lon="8.440557">
        <ele>547.65</ele>
        <time>2024-06-15T08:44:31.887Z</time>
      </trkpt>
      <trkpt lat="44.386615" lon="8.440585">
        <ele>547.30</ele>
        <time>2024-06-15T08:44:33.887Z</time>
      </trkpt>
      <trkpt lat="44.386615" lon="8.440585">
        <ele>547.30</ele>
        <time>2024-06-15T08:44:33.887Z</time>
      </trkpt>
      <trkpt lat="44.386615" lon="8.440585">
        <ele>547.30</ele>
        <time>2024-06-15T08:44:33.887Z</time>
      </trkpt>
      <trkpt lat="44.386615" lon="8.440585">
        <ele>547.30</ele>
        <time>2024-06-15T08:44:33.887Z</time>
      </trkpt>
      <trkpt lat="44.386619" lon="8.440580">
        <ele>547.35</ele>
        <time>2024-06-15T08:44:33.887Z</time>
      </trkpt>
      <trkpt lat="44.386615" lon="8.440585">
        <ele>547.30</ele>
        <time>2024-06-15T08:44:33.887Z</time>
      </trkpt>
      <trkpt lat="44.386581" lon="8.440575">
        <ele>546.87</ele>
        <time>2024-06-15T08:44:33.887Z</time>
      </trkpt>
      <trkpt lat="44.386494" lon="8.440524">
        <ele>546.37</ele>
        <time>2024-06-15T08:44:34.887Z</time>
      </trkpt>
      <trkpt lat="44.386401" lon="8.440482">
        <ele>546.57</ele>
        <time>2024-06-15T08:44:36.887Z</time>
      </trkpt>
      <trkpt lat="44.386292" lon="8.440462">
        <ele>547.35</ele>
        <time>2024-06-15T08:44:37.887Z</time>
      </trkpt>
      <trkpt lat="44.386162" lon="8.440486">
        <ele>548.45</ele>
        <time>2024-06-15T08:44:39.887Z</time>
      </trkpt>
      <trkpt lat="44.386000" lon="8.440578">
        <ele>548.18</ele>
        <time>2024-06-15T08:44:42.887Z</time>
      </trkpt>
      <trkpt lat="44.385815" lon="8.440716">
        <ele>544.77</ele>
        <time>2024-06-15T08:44:45.887Z</time>
      </trkpt>
      <trkpt lat="44.385553" lon="8.440891">
        <ele>539.73</ele>
        <time>2024-06-15T08:44:49.887Z</time>
      </trkpt>
      <trkpt lat="44.385451" lon="8.440975">
        <ele>537.20</ele>
        <time>2024-06-15T08:44:51.887Z</time>
      </trkpt>
      <trkpt lat="44.385312" lon="8.441032">
        <ele>535.55</ele>
        <time>2024-06-15T08:44:53.887Z</time>
      </trkpt>
      <trkpt lat="44.385071" lon="8.441068">
        <ele>534.34</ele>
        <time>2024-06-15T08:44:56.887Z</time>
      </trkpt>
      <trkpt lat="44.384900" lon="8.441110">
        <ele>533.26</ele>
        <time>2024-06-15T08:44:59.887Z</time>
      </trkpt>
      <trkpt lat="44.384674" lon="8.441208">
        <ele>531.79</ele>
        <time>2024-06-15T08:45:02.887Z</time>
      </trkpt>
      <trkpt lat="44.384609" lon="8.441261">
        <ele>530.61</ele>
        <time>2024-06-15T08:45:03.887Z</time>
      </trkpt>
      <trkpt lat="44.384545" lon="8.441337">
        <ele>528.66</ele>
        <time>2024-06-15T08:45:04.887Z</time>
      </trkpt>
      <trkpt lat="44.384480" lon="8.441488">
        <ele>523.71</ele>
        <time>2024-06-15T08:45:06.887Z</time>
      </trkpt>
      <trkpt lat="44.384420" lon="8.441578">
        <ele>521.65</ele>
        <time>2024-06-15T08:45:07.887Z</time>
      </trkpt>
      <trkpt lat="44.384356" lon="8.441702">
        <ele>518.93</ele>
        <time>2024-06-15T08:45:09.887Z</time>
      </trkpt>
      <trkpt lat="44.384246" lon="8.441860">
        <ele>516.69</ele>
        <time>2024-06-15T08:45:11.887Z</time>
      </trkpt>
      <trkpt lat="44.384189" lon="8.442019">
        <ele>513.72</ele>
        <time>2024-06-15T08:45:13.887Z</time>
      </trkpt>
      <trkpt lat="44.384080" lon="8.442262">
        <ele>510.13</ele>
        <time>2024-06-15T08:45:16.887Z</time>
      </trkpt>
      <trkpt lat="44.383994" lon="8.442422">
        <ele>508.52</ele>
        <time>2024-06-15T08:45:18.887Z</time>
      </trkpt>
      <trkpt lat="44.383781" lon="8.442580">
        <ele>506.47</ele>
        <time>2024-06-15T08:45:22.887Z</time>
      </trkpt>
      <trkpt lat="44.383648" lon="8.442689">
        <ele>503.76</ele>
        <time>2024-06-15T08:45:24.887Z</time>
      </trkpt>
      <trkpt lat="44.383566" lon="8.442775">
        <ele>501.87</ele>
        <time>2024-06-15T08:45:26.887Z</time>
      </trkpt>
      <trkpt lat="44.383527" lon="8.442861">
        <ele>500.32</ele>
        <time>2024-06-15T08:45:27.887Z</time>
      </trkpt>
      <trkpt lat="44.383455" lon="8.442967">
        <ele>497.99</ele>
        <time>2024-06-15T08:45:28.887Z</time>
      </trkpt>
      <trkpt lat="44.383352" lon="8.443051">
        <ele>495.37</ele>
        <time>2024-06-15T08:45:30.887Z</time>
      </trkpt>
      <trkpt lat="44.383210" lon="8.443149">
        <ele>491.63</ele>
        <time>2024-06-15T08:45:32.887Z</time>
      </trkpt>
      <trkpt lat="44.383064" lon="8.443229">
        <ele>488.20</ele>
        <time>2024-06-15T08:45:34.887Z</time>
      </trkpt>
      <trkpt lat="44.382764" lon="8.443420">
        <ele>483.97</ele>
        <time>2024-06-15T08:45:39.887Z</time>
      </trkpt>
      <trkpt lat="44.382692" lon="8.443501">
        <ele>483.43</ele>
        <time>2024-06-15T08:45:40.887Z</time>
      </trkpt>
      <trkpt lat="44.382620" lon="8.443613">
        <ele>483.24</ele>
        <time>2024-06-15T08:45:42.887Z</time>
      </trkpt>
      <trkpt lat="44.382477" lon="8.443774">
        <ele>483.90</ele>
        <time>2024-06-15T08:45:44.887Z</time>
      </trkpt>
      <trkpt lat="44.382308" lon="8.444015">
        <ele>486.27</ele>
        <time>2024-06-15T08:45:48.887Z</time>
      </trkpt>
      <trkpt lat="44.382237" lon="8.444078">
        <ele>486.77</ele>
        <time>2024-06-15T08:45:49.887Z</time>
      </trkpt>
      <trkpt lat="44.382215" lon="8.444123">
        <ele>487.09</ele>
        <time>2024-06-15T08:45:50.887Z</time>
      </trkpt>
      <trkpt lat="44.382224" lon="8.444195">
        <ele>487.00</ele>
        <time>2024-06-15T08:45:50.887Z</time>
      </trkpt>
      <trkpt lat="44.382216" lon="8.444221">
        <ele>486.95</ele>
        <time>2024-06-15T08:45:51.887Z</time>
      </trkpt>
      <trkpt lat="44.382192" lon="8.444263">
        <ele>486.90</ele>
        <time>2024-06-15T08:45:51.887Z</time>
      </trkpt>
      <trkpt lat="44.382170" lon="8.444267">
        <ele>487.01</ele>
        <time>2024-06-15T08:45:52.887Z</time>
      </trkpt>
      <trkpt lat="44.382123" lon="8.444335">
        <ele>486.83</ele>
        <time>2024-06-15T08:45:53.887Z</time>
      </trkpt>
      <trkpt lat="44.382114" lon="8.444357">
        <ele>486.74</ele>
        <time>2024-06-15T08:45:53.887Z</time>
      </trkpt>
      <trkpt lat="44.382118" lon="8.444381">
        <ele>486.52</ele>
        <time>2024-06-15T08:45:53.887Z</time>
      </trkpt>
      <trkpt lat="44.382107" lon="8.444405">
        <ele>486.36</ele>
        <time>2024-06-15T08:45:53.887Z</time>
      </trkpt>
      <trkpt lat="44.382079" lon="8.444421">
        <ele>486.34</ele>
        <time>2024-06-15T08:45:54.887Z</time>
      </trkpt>
      <trkpt lat="44.382072" lon="8.444454">
        <ele>486.08</ele>
        <time>2024-06-15T08:45:54.887Z</time>
      </trkpt>
      <trkpt lat="44.381992" lon="8.444518">
        <ele>485.14</ele>
        <time>2024-06-15T08:45:56.887Z</time>
      </trkpt>
      <trkpt lat="44.382011" lon="8.444529">
        <ele>485.11</ele>
        <time>2024-06-15T08:45:56.887Z</time>
      </trkpt>
      <trkpt lat="44.382026" lon="8.444527">
        <ele>485.21</ele>
        <time>2024-06-15T08:45:56.887Z</time>
      </trkpt>
      <trkpt lat="44.382059" lon="8.444548">
        <ele>484.78</ele>
        <time>2024-06-15T08:45:57.887Z</time>
      </trkpt>
      <trkpt lat="44.382053" lon="8.444562">
        <ele>484.56</ele>
        <time>2024-06-15T08:45:57.887Z</time>
      </trkpt>
      <trkpt lat="44.382038" lon="8.444573">
        <ele>484.44</ele>
        <time>2024-06-15T08:45:57.887Z</time>
      </trkpt>
      <trkpt lat="44.382026" lon="8.444583">
        <ele>484.30</ele>
        <time>2024-06-15T08:45:57.887Z</time>
      </trkpt>
      <trkpt lat="44.381968" lon="8.444588">
        <ele>484.04</ele>
        <time>2024-06-15T08:45:58.887Z</time>
      </trkpt>
      <trkpt lat="44.381944" lon="8.444602">
        <ele>483.54</ele>
        <time>2024-06-15T08:45:58.887Z</time>
      </trkpt>
      <trkpt lat="44.381888" lon="8.444579">
        <ele>483.06</ele>
        <time>2024-06-15T08:45:59.887Z</time>
      </trkpt>
      <trkpt lat="44.381829" lon="8.444586">
        <ele>481.70</ele>
        <time>2024-06-15T08:46:00.887Z</time>
      </trkpt>
      <trkpt lat="44.381807" lon="8.444577">
        <ele>481.20</ele>
        <time>2024-06-15T08:46:00.887Z</time>
      </trkpt>
      <trkpt lat="44.381761" lon="8.444591">
        <ele>479.72</ele>
        <time>2024-06-15T08:46:01.887Z</time>
      </trkpt>
      <trkpt lat="44.381681" lon="8.444593">
        <ele>477.06</ele>
        <time>2024-06-15T08:46:02.887Z</time>
      </trkpt>
      <trkpt lat="44.381618" lon="8.444533">
        <ele>475.06</ele>
        <time>2024-06-15T08:46:03.887Z</time>
      </trkpt>
      <trkpt lat="44.381600" lon="8.444521">
        <ele>474.37</ele>
        <time>2024-06-15T08:46:04.887Z</time>
      </trkpt>
      <trkpt lat="44.381470" lon="8.444648">
        <ele>469.44</ele>
        <time>2024-06-15T08:46:06.887Z</time>
      </trkpt>
      <trkpt lat="44.381380" lon="8.444712">
        <ele>466.05</ele>
        <time>2024-06-15T08:46:07.887Z</time>
      </trkpt>
      <trkpt lat="44.381288" lon="8.444734">
        <ele>462.94</ele>
        <time>2024-06-15T08:46:09.887Z</time>
      </trkpt>
      <trkpt lat="44.381268" lon="8.444751">
        <ele>462.23</ele>
        <time>2024-06-15T08:46:09.887Z</time>
      </trkpt>
      <trkpt lat="44.381235" lon="8.444738">
        <ele>461.35</ele>
        <time>2024-06-15T08:46:10.887Z</time>
      </trkpt>
      <trkpt lat="44.381218" lon="8.444697">
        <ele>460.94</ele>
        <time>2024-06-15T08:46:10.887Z</time>
      </trkpt>
      <trkpt lat="44.381180" lon="8.444661">
        <ele>459.63</ele>
        <time>2024-06-15T08:46:11.887Z</time>
      </trkpt>
      <trkpt lat="44.381108" lon="8.444678">
        <ele>457.57</ele>
        <time>2024-06-15T08:46:12.887Z</time>
      </trkpt>
      <trkpt lat="44.381072" lon="8.444703">
        <ele>456.65</ele>
        <time>2024-06-15T08:46:12.887Z</time>
      </trkpt>
      <trkpt lat="44.381053" lon="8.444728">
        <ele>456.20</ele>
        <time>2024-06-15T08:46:13.887Z</time>
      </trkpt>
      <trkpt lat="44.380988" lon="8.444878">
        <ele>454.83</ele>
        <time>2024-06-15T08:46:15.887Z</time>
      </trkpt>
      <trkpt lat="44.380976" lon="8.444922">
        <ele>454.32</ele>
        <time>2024-06-15T08:46:15.887Z</time>
      </trkpt>
      <trkpt lat="44.380961" lon="8.444966">
        <ele>453.79</ele>
        <time>2024-06-15T08:46:16.887Z</time>
      </trkpt>
      <trkpt lat="44.380909" lon="8.445001">
        <ele>452.60</ele>
        <time>2024-06-15T08:46:16.887Z</time>
      </trkpt>
      <trkpt lat="44.380861" lon="8.445058">
        <ele>451.39</ele>
        <time>2024-06-15T08:46:17.887Z</time>
      </trkpt>
      <trkpt lat="44.380734" lon="8.445159">
        <ele>448.73</ele>
        <time>2024-06-15T08:46:20.887Z</time>
      </trkpt>
      <trkpt lat="44.380653" lon="8.445235">
        <ele>446.82</ele>
        <time>2024-06-15T08:46:21.887Z</time>
      </trkpt>
      <trkpt lat="44.380523" lon="8.445329">
        <ele>444.68</ele>
        <time>2024-06-15T08:46:23.887Z</time>
      </trkpt>
      <trkpt lat="44.380234" lon="8.445594">
        <ele>438.59</ele>
        <time>2024-06-15T08:46:28.887Z</time>
      </trkpt>
      <trkpt lat="44.380138" lon="8.445661">
        <ele>437.14</ele>
        <time>2024-06-15T08:46:30.887Z</time>
      </trkpt>
      <trkpt lat="44.380010" lon="8.445787">
        <ele>433.56</ele>
        <time>2024-06-15T08:46:32.887Z</time>
      </trkpt>
      <trkpt lat="44.379898" lon="8.445844">
        <ele>432.26</ele>
        <time>2024-06-15T08:46:34.887Z</time>
      </trkpt>
      <trkpt lat="44.379781" lon="8.445883">
        <ele>431.03</ele>
        <time>2024-06-15T08:46:35.887Z</time>
      </trkpt>
      <trkpt lat="44.379663" lon="8.445936">
        <ele>429.13</ele>
        <time>2024-06-15T08:46:37.887Z</time>
      </trkpt>
      <trkpt lat="44.379453" lon="8.446001">
        <ele>425.47</ele>
        <time>2024-06-15T08:46:40.887Z</time>
      </trkpt>
      <trkpt lat="44.379311" lon="8.446100">
        <ele>422.76</ele>
        <time>2024-06-15T08:46:43.887Z</time>
      </trkpt>
      <trkpt lat="44.379186" lon="8.446170">
        <ele>420.61</ele>
        <time>2024-06-15T08:46:44.887Z</time>
      </trkpt>
      <trkpt lat="44.378943" lon="8.446422">
        <ele>418.67</ele>
        <time>2024-06-15T08:46:49.887Z</time>
      </trkpt>
      <trkpt lat="44.378844" lon="8.446523">
        <ele>418.98</ele>
        <time>2024-06-15T08:46:51.887Z</time>
      </trkpt>
      <trkpt lat="44.378662" lon="8.446619">
        <ele>418.57</ele>
        <time>2024-06-15T08:46:53.887Z</time>
      </trkpt>
      <trkpt lat="44.378523" lon="8.446684">
        <ele>418.44</ele>
        <time>2024-06-15T08:46:55.887Z</time>
      </trkpt>
      <trkpt lat="44.378000" lon="8.446862">
        <ele>414.45</ele>
        <time>2024-06-15T08:47:03.887Z</time>
      </trkpt>
      <trkpt lat="44.377757" lon="8.446953">
        <ele>412.23</ele>
        <time>2024-06-15T08:47:07.887Z</time>
      </trkpt>
      <trkpt lat="44.377603" lon="8.447053">
        <ele>410.96</ele>
        <time>2024-06-15T08:47:09.887Z</time>
      </trkpt>
      <trkpt lat="44.377472" lon="8.447150">
        <ele>409.58</ele>
        <time>2024-06-15T08:47:11.887Z</time>
      </trkpt>
      <trkpt lat="44.377350" lon="8.447328">
        <ele>408.86</ele>
        <time>2024-06-15T08:47:14.887Z</time>
      </trkpt>
      <trkpt lat="44.377180" lon="8.447500">
        <ele>407.18</ele>
        <time>2024-06-15T08:47:17.887Z</time>
      </trkpt>
      <trkpt lat="44.376808" lon="8.447998">
        <ele>409.97</ele>
        <time>2024-06-15T08:47:24.887Z</time>
      </trkpt>
      <trkpt lat="44.376664" lon="8.448127">
        <ele>411.16</ele>
        <time>2024-06-15T08:47:27.887Z</time>
      </trkpt>
      <trkpt lat="44.376410" lon="8.448301">
        <ele>411.08</ele>
        <time>2024-06-15T08:47:31.887Z</time>
      </trkpt>
      <trkpt lat="44.376231" lon="8.448352">
        <ele>409.30</ele>
        <time>2024-06-15T08:47:33.887Z</time>
      </trkpt>
      <trkpt lat="44.376105" lon="8.448521">
        <ele>407.59</ele>
        <time>2024-06-15T08:47:36.887Z</time>
      </trkpt>
      <trkpt lat="44.376027" lon="8.448659">
        <ele>407.35</ele>
        <time>2024-06-15T08:47:38.887Z</time>
      </trkpt>
      <trkpt lat="44.375871" lon="8.448842">
        <ele>408.41</ele>
        <time>2024-06-15T08:47:41.887Z</time>
      </trkpt>
      <trkpt lat="44.375731" lon="8.448986">
        <ele>410.84</ele>
        <time>2024-06-15T08:47:43.887Z</time>
      </trkpt>
      <trkpt lat="44.375449" lon="8.449174">
        <ele>413.25</ele>
        <time>2024-06-15T08:47:47.887Z</time>
      </trkpt>
      <trkpt lat="44.375332" lon="8.449278">
        <ele>413.76</ele>
        <time>2024-06-15T08:47:49.887Z</time>
      </trkpt>
      <trkpt lat="44.375113" lon="8.449380">
        <ele>413.56</ele>
        <time>2024-06-15T08:47:53.887Z</time>
      </trkpt>
      <trkpt lat="44.374942" lon="8.449388">
        <ele>413.03</ele>
        <time>2024-06-15T08:47:55.887Z</time>
      </trkpt>
      <trkpt lat="44.374785" lon="8.449436">
        <ele>413.12</ele>
        <time>2024-06-15T08:47:58.887Z</time>
      </trkpt>
      <trkpt lat="44.374653" lon="8.449445">
        <ele>411.27</ele>
        <time>2024-06-15T08:47:59.887Z</time>
      </trkpt>
      <trkpt lat="44.374580" lon="8.449493">
        <ele>410.49</ele>
        <time>2024-06-15T08:48:01.887Z</time>
      </trkpt>
      <trkpt lat="44.374515" lon="8.449588">
        <ele>410.21</ele>
        <time>2024-06-15T08:48:02.887Z</time>
      </trkpt>
      <trkpt lat="44.374480" lon="8.449779">
        <ele>411.40</ele>
        <time>2024-06-15T08:48:04.887Z</time>
      </trkpt>
      <trkpt lat="44.374366" lon="8.450182">
        <ele>411.78</ele>
        <time>2024-06-15T08:48:08.887Z</time>
      </trkpt>
      <trkpt lat="44.374205" lon="8.450566">
        <ele>414.49</ele>
        <time>2024-06-15T08:48:13.887Z</time>
      </trkpt>
      <trkpt lat="44.374088" lon="8.451001">
        <ele>416.81</ele>
        <time>2024-06-15T08:48:18.887Z</time>
      </trkpt>
      <trkpt lat="44.373904" lon="8.451215">
        <ele>419.90</ele>
        <time>2024-06-15T08:48:21.887Z</time>
      </trkpt>
      <trkpt lat="44.373824" lon="8.451340">
        <ele>420.78</ele>
        <time>2024-06-15T08:48:23.887Z</time>
      </trkpt>
      <trkpt lat="44.373727" lon="8.451653">
        <ele>420.77</ele>
        <time>2024-06-15T08:48:26.887Z</time>
      </trkpt>
      <trkpt lat="44.373597" lon="8.451836">
        <ele>422.34</ele>
        <time>2024-06-15T08:48:29.887Z</time>
      </trkpt>
      <trkpt lat="44.373440" lon="8.451959">
        <ele>423.78</ele>
        <time>2024-06-15T08:48:32.887Z</time>
      </trkpt>
      <trkpt lat="44.373333" lon="8.452085">
        <ele>424.07</ele>
        <time>2024-06-15T08:48:34.887Z</time>
      </trkpt>
      <trkpt lat="44.373219" lon="8.452183">
        <ele>425.54</ele>
        <time>2024-06-15T08:48:35.887Z</time>
      </trkpt>
      <trkpt lat="44.373060" lon="8.452380">
        <ele>426.69</ele>
        <time>2024-06-15T08:48:38.887Z</time>
      </trkpt>
      <trkpt lat="44.372937" lon="8.452572">
        <ele>426.32</ele>
        <time>2024-06-15T08:48:41.887Z</time>
      </trkpt>
      <trkpt lat="44.372836" lon="8.452628">
        <ele>427.52</ele>
        <time>2024-06-15T08:48:43.887Z</time>
      </trkpt>
      <trkpt lat="44.372683" lon="8.452685">
        <ele>427.79</ele>
        <time>2024-06-15T08:48:45.887Z</time>
      </trkpt>
      <trkpt lat="44.372549" lon="8.452777">
        <ele>425.25</ele>
        <time>2024-06-15T08:48:47.887Z</time>
      </trkpt>
      <trkpt lat="44.372490" lon="8.452805">
        <ele>424.09</ele>
        <time>2024-06-15T08:48:48.887Z</time>
      </trkpt>
      <trkpt lat="44.372436" lon="8.452783">
        <ele>423.53</ele>
        <time>2024-06-15T08:48:49.887Z</time>
      </trkpt>
      <trkpt lat="44.372380" lon="8.452732">
        <ele>422.73</ele>
        <time>2024-06-15T08:48:50.887Z</time>
      </trkpt>
      <trkpt lat="44.372347" lon="8.452678">
        <ele>422.15</ele>
        <time>2024-06-15T08:48:50.887Z</time>
      </trkpt>
      <trkpt lat="44.372327" lon="8.452558">
        <ele>422.57</ele>
        <time>2024-06-15T08:48:52.887Z</time>
      </trkpt>
      <trkpt lat="44.372264" lon="8.452426">
        <ele>421.74</ele>
        <time>2024-06-15T08:48:53.887Z</time>
      </trkpt>
      <trkpt lat="44.372200" lon="8.452365">
        <ele>419.99</ele>
        <time>2024-06-15T08:48:55.887Z</time>
      </trkpt>
      <trkpt lat="44.372146" lon="8.452336">
        <ele>418.10</ele>
        <time>2024-06-15T08:48:55.887Z</time>
      </trkpt>
      <trkpt lat="44.372071" lon="8.452356">
        <ele>413.91</ele>
        <time>2024-06-15T08:48:57.887Z</time>
      </trkpt>
      <trkpt lat="44.372057" lon="8.452430">
        <ele>411.55</ele>
        <time>2024-06-15T08:48:57.887Z</time>
      </trkpt>
      <trkpt lat="44.372060" lon="8.452464">
        <ele>411.08</ele>
        <time>2024-06-15T08:48:58.887Z</time>
      </trkpt>
      <trkpt lat="44.372015" lon="8.452478">
        <ele>408.36</ele>
        <time>2024-06-15T08:48:58.887Z</time>
      </trkpt>
      <trkpt lat="44.371867" lon="8.452402">
        <ele>401.86</ele>
        <time>2024-06-15T08:49:01.887Z</time>
      </trkpt>
      <trkpt lat="44.371814" lon="8.452353">
        <ele>400.26</ele>
        <time>2024-06-15T08:49:02.887Z</time>
      </trkpt>
      <trkpt lat="44.371777" lon="8.452337">
        <ele>398.70</ele>
        <time>2024-06-15T08:49:02.887Z</time>
      </trkpt>
      <trkpt lat="44.371713" lon="8.452320">
        <ele>395.54</ele>
        <time>2024-06-15T08:49:03.887Z</time>
      </trkpt>
      <trkpt lat="44.371640" lon="8.452360">
        <ele>389.99</ele>
        <time>2024-06-15T08:49:05.887Z</time>
      </trkpt>
      <trkpt lat="44.371587" lon="8.452335">
        <ele>387.53</ele>
        <time>2024-06-15T08:49:05.887Z</time>
      </trkpt>
      <trkpt lat="44.371505" lon="8.452230">
        <ele>385.86</ele>
        <time>2024-06-15T08:49:07.887Z</time>
      </trkpt>
      <trkpt lat="44.371466" lon="8.452144">
        <ele>385.83</ele>
        <time>2024-06-15T08:49:08.887Z</time>
      </trkpt>
      <trkpt lat="44.371340" lon="8.452032">
        <ele>380.59</ele>
        <time>2024-06-15T08:49:11.118Z</time>
      </trkpt>
      <trkpt lat="44.371587" lon="8.452820">
        <ele>377.95</ele>
        <time>2024-06-15T08:49:20.311Z</time>
      </trkpt>
      <trkpt lat="44.371512" lon="8.452947">
        <ele>373.97</ele>
        <time>2024-06-15T08:49:22.071Z</time>
      </trkpt>
      <trkpt lat="44.371404" lon="8.453056">
        <ele>368.05</ele>
        <time>2024-06-15T08:49:24.061Z</time>
      </trkpt>
      <trkpt lat="44.371354" lon="8.453186">
        <ele>366.77</ele>
        <time>2024-06-15T08:49:25.638Z</time>
      </trkpt>
      <trkpt lat="44.371313" lon="8.453431">
        <ele>368.50</ele>
        <time>2024-06-15T08:49:28.326Z</time>
      </trkpt>
      <trkpt lat="44.371257" lon="8.453606">
        <ele>368.16</ele>
        <time>2024-06-15T08:49:30.374Z</time>
      </trkpt>
      <trkpt lat="44.371055" lon="8.453902">
        <ele>364.77</ele>
        <time>2024-06-15T08:49:34.746Z</time>
      </trkpt>
      <trkpt lat="44.370934" lon="8.454040">
        <ele>364.38</ele>
        <time>2024-06-15T08:49:37.079Z</time>
      </trkpt>
      <trkpt lat="44.370716" lon="8.454204">
        <ele>358.71</ele>
        <time>2024-06-15T08:49:40.778Z</time>
      </trkpt>
      <trkpt lat="44.370619" lon="8.454239">
        <ele>354.25</ele>
        <time>2024-06-15T08:49:42.275Z</time>
      </trkpt>
      <trkpt lat="44.370533" lon="8.454353">
        <ele>351.53</ele>
        <time>2024-06-15T08:49:44.045Z</time>
      </trkpt>
      <trkpt lat="44.370515" lon="8.454532">
        <ele>351.20</ele>
        <time>2024-06-15T08:49:45.976Z</time>
      </trkpt>
      <trkpt lat="44.370523" lon="8.454655">
        <ele>350.84</ele>
        <time>2024-06-15T08:49:47.295Z</time>
      </trkpt>
      <trkpt lat="44.370542" lon="8.454847">
        <ele>349.16</ele>
        <time>2024-06-15T08:49:49.366Z</time>
      </trkpt>
      <trkpt lat="44.370587" lon="8.455022">
        <ele>349.11</ele>
        <time>2024-06-15T08:49:51.353Z</time>
      </trkpt>
      <trkpt lat="44.370642" lon="8.455386">
        <ele>346.80</ele>
        <time>2024-06-15T08:49:55.328Z</time>
      </trkpt>
      <trkpt lat="44.370648" lon="8.455540">
        <ele>345.27</ele>
        <time>2024-06-15T08:49:56.975Z</time>
      </trkpt>
      <trkpt lat="44.370632" lon="8.455865">
        <ele>341.98</ele>
        <time>2024-06-15T08:50:00.455Z</time>
      </trkpt>
      <trkpt lat="44.370598" lon="8.456142">
        <ele>340.25</ele>
        <time>2024-06-15T08:50:03.457Z</time>
      </trkpt>
      <trkpt lat="44.370515" lon="8.456417">
        <ele>338.66</ele>
        <time>2024-06-15T08:50:06.646Z</time>
      </trkpt>
      <trkpt lat="44.370420" lon="8.456527">
        <ele>334.34</ele>
        <time>2024-06-15T08:50:08.489Z</time>
      </trkpt>
      <trkpt lat="44.370366" lon="8.456666">
        <ele>333.24</ele>
        <time>2024-06-15T08:50:10.179Z</time>
      </trkpt>
      <trkpt lat="44.370302" lon="8.456915">
        <ele>332.25</ele>
        <time>2024-06-15T08:50:13.006Z</time>
      </trkpt>
      <trkpt lat="44.370225" lon="8.457111">
        <ele>327.87</ele>
        <time>2024-06-15T08:50:15.395Z</time>
      </trkpt>
      <trkpt lat="44.370207" lon="8.457336">
        <ele>326.12</ele>
        <time>2024-06-15T08:50:17.814Z</time>
      </trkpt>
      <trkpt lat="44.370195" lon="8.457410">
        <ele>324.88</ele>
        <time>2024-06-15T08:50:18.624Z</time>
      </trkpt>
      <trkpt lat="44.370174" lon="8.457454">
        <ele>323.23</ele>
        <time>2024-06-15T08:50:19.189Z</time>
      </trkpt>
      <trkpt lat="44.370130" lon="8.457597">
        <ele>319.71</ele>
        <time>2024-06-15T08:50:20.852Z</time>
      </trkpt>
      <trkpt lat="44.370092" lon="8.457809">
        <ele>317.80</ele>
        <time>2024-06-15T08:50:23.187Z</time>
      </trkpt>
      <trkpt lat="44.370043" lon="8.457953">
        <ele>316.84</ele>
        <time>2024-06-15T08:50:24.891Z</time>
      </trkpt>
      <trkpt lat="44.369818" lon="8.458164">
        <ele>311.97</ele>
        <time>2024-06-15T08:50:28.939Z</time>
      </trkpt>
      <trkpt lat="44.369712" lon="8.458232">
        <ele>309.05</ele>
        <time>2024-06-15T08:50:30.682Z</time>
      </trkpt>
      <trkpt lat="44.369665" lon="8.458278">
        <ele>307.98</ele>
        <time>2024-06-15T08:50:31.539Z</time>
      </trkpt>
      <trkpt lat="44.369629" lon="8.458359">
        <ele>307.56</ele>
        <time>2024-06-15T08:50:32.558Z</time>
      </trkpt>
      <trkpt lat="44.369627" lon="8.458440">
        <ele>308.02</ele>
        <time>2024-06-15T08:50:33.423Z</time>
      </trkpt>
      <trkpt lat="44.369572" lon="8.458695">
        <ele>304.87</ele>
        <time>2024-06-15T08:50:36.268Z</time>
      </trkpt>
      <trkpt lat="44.369498" lon="8.458874">
        <ele>300.00</ele>
        <time>2024-06-15T08:50:38.477Z</time>
      </trkpt>
      <trkpt lat="44.369361" lon="8.459189">
        <ele>291.43</ele>
        <time>2024-06-15T08:50:42.416Z</time>
      </trkpt>
      <trkpt lat="44.369227" lon="8.459394">
        <ele>286.01</ele>
        <time>2024-06-15T08:50:45.384Z</time>
      </trkpt>
      <trkpt lat="44.369194" lon="8.459600">
        <ele>284.42</ele>
        <time>2024-06-15T08:50:47.639Z</time>
      </trkpt>
      <trkpt lat="44.369115" lon="8.459779">
        <ele>282.41</ele>
        <time>2024-06-15T08:50:49.886Z</time>
      </trkpt>
      <trkpt lat="44.369005" lon="8.459964">
        <ele>279.93</ele>
        <time>2024-06-15T08:50:52.457Z</time>
      </trkpt>
      <trkpt lat="44.368905" lon="8.460101">
        <ele>276.94</ele>
        <time>2024-06-15T08:50:54.549Z</time>
      </trkpt>
      <trkpt lat="44.368816" lon="8.460172">
        <ele>274.56</ele>
        <time>2024-06-15T08:50:56.080Z</time>
      </trkpt>
      <trkpt lat="44.368699" lon="8.460202">
        <ele>271.90</ele>
        <time>2024-06-15T08:50:57.857Z</time>
      </trkpt>
      <trkpt lat="44.368651" lon="8.460169">
        <ele>271.24</ele>
        <time>2024-06-15T08:50:58.656Z</time>
      </trkpt>
      <trkpt lat="44.368536" lon="8.460000">
        <ele>267.23</ele>
        <time>2024-06-15T08:51:01.149Z</time>
      </trkpt>
      <trkpt lat="44.368462" lon="8.460011">
        <ele>264.02</ele>
        <time>2024-06-15T08:51:02.261Z</time>
      </trkpt>
      <trkpt lat="44.368397" lon="8.460094">
        <ele>261.91</ele>
        <time>2024-06-15T08:51:03.576Z</time>
      </trkpt>
      <trkpt lat="44.368364" lon="8.460169">
        <ele>260.80</ele>
        <time>2024-06-15T08:51:04.517Z</time>
      </trkpt>
      <trkpt lat="44.368346" lon="8.460283">
        <ele>259.90</ele>
        <time>2024-06-15T08:51:05.764Z</time>
      </trkpt>
      <trkpt lat="44.368355" lon="8.460378">
        <ele>259.64</ele>
        <time>2024-06-15T08:51:06.787Z</time>
      </trkpt>
      <trkpt lat="44.368347" lon="8.460436">
        <ele>258.79</ele>
        <time>2024-06-15T08:51:07.418Z</time>
      </trkpt>
      <trkpt lat="44.368262" lon="8.460549">
        <ele>254.39</ele>
        <time>2024-06-15T08:51:09.170Z</time>
      </trkpt>
      <trkpt lat="44.368209" lon="8.460647">
        <ele>251.78</ele>
        <time>2024-06-15T08:51:10.483Z</time>
      </trkpt>
      <trkpt lat="44.368145" lon="8.460820">
        <ele>248.86</ele>
        <time>2024-06-15T08:51:12.564Z</time>
      </trkpt>
      <trkpt lat="44.368031" lon="8.461316">
        <ele>242.14</ele>
        <time>2024-06-15T08:51:18.131Z</time>
      </trkpt>
      <trkpt lat="44.367931" lon="8.461575">
        <ele>239.24</ele>
        <time>2024-06-15T08:51:21.276Z</time>
      </trkpt>
      <trkpt lat="44.367863" lon="8.461811">
        <ele>237.52</ele>
        <time>2024-06-15T08:51:23.994Z</time>
      </trkpt>
      <trkpt lat="44.367865" lon="8.462029">
        <ele>233.48</ele>
        <time>2024-06-15T08:51:26.323Z</time>
      </trkpt>
      <trkpt lat="44.367831" lon="8.462192">
        <ele>231.58</ele>
        <time>2024-06-15T08:51:28.137Z</time>
      </trkpt>
      <trkpt lat="44.367749" lon="8.462408">
        <ele>228.70</ele>
        <time>2024-06-15T08:51:30.750Z</time>
      </trkpt>
      <trkpt lat="44.367749" lon="8.462408">
        <ele>228.70</ele>
        <time>2024-06-15T08:51:30.750Z</time>
      </trkpt>
      <trkpt lat="44.367711" lon="8.462447">
        <ele>228.24</ele>
        <time>2024-06-15T08:51:31.252Z</time>
      </trkpt>
      <trkpt lat="44.367533" lon="8.462447">
        <ele>229.22</ele>
        <time>2024-06-15T08:51:33.150Z</time>
      </trkpt>
      <trkpt lat="44.367466" lon="8.462459">
        <ele>228.07</ele>
        <time>2024-06-15T08:51:33.870Z</time>
      </trkpt>
      <trkpt lat="44.367354" lon="8.462499">
        <ele>224.66</ele>
        <time>2024-06-15T08:51:35.102Z</time>
      </trkpt>
      <trkpt lat="44.367260" lon="8.462569">
        <ele>220.53</ele>
        <time>2024-06-15T08:51:36.237Z</time>
      </trkpt>
      <trkpt lat="44.367151" lon="8.462707">
        <ele>214.44</ele>
        <time>2024-06-15T08:51:37.804Z</time>
      </trkpt>
      <trkpt lat="44.367126" lon="8.462786">
        <ele>212.00</ele>
        <time>2024-06-15T08:51:38.462Z</time>
      </trkpt>
      <trkpt lat="44.367028" lon="8.462871">
        <ele>207.05</ele>
        <time>2024-06-15T08:51:39.691Z</time>
      </trkpt>
      <trkpt lat="44.367006" lon="8.462876">
        <ele>206.30</ele>
        <time>2024-06-15T08:51:39.928Z</time>
      </trkpt>
      <trkpt lat="44.366967" lon="8.462974">
        <ele>202.91</ele>
        <time>2024-06-15T08:51:40.783Z</time>
      </trkpt>
      <trkpt lat="44.366929" lon="8.463033">
        <ele>200.48</ele>
        <time>2024-06-15T08:51:41.388Z</time>
      </trkpt>
      <trkpt lat="44.366881" lon="8.463075">
        <ele>198.19</ele>
        <time>2024-06-15T08:51:41.991Z</time>
      </trkpt>
      <trkpt lat="44.366872" lon="8.463125">
        <ele>196.76</ele>
        <time>2024-06-15T08:51:42.384Z</time>
      </trkpt>
      <trkpt lat="44.366892" lon="8.463157">
        <ele>196.47</ele>
        <time>2024-06-15T08:51:42.708Z</time>
      </trkpt>
      <trkpt lat="44.366891" lon="8.463193">
        <ele>195.44</ele>
        <time>2024-06-15T08:51:42.982Z</time>
      </trkpt>
      <trkpt lat="44.366867" lon="8.463264">
        <ele>192.92</ele>
        <time>2024-06-15T08:51:43.580Z</time>
      </trkpt>
      <trkpt lat="44.366824" lon="8.463340">
        <ele>189.79</ele>
        <time>2024-06-15T08:51:44.318Z</time>
      </trkpt>
      <trkpt lat="44.366787" lon="8.463376">
        <ele>187.78</ele>
        <time>2024-06-15T08:51:44.798Z</time>
      </trkpt>
      <trkpt lat="44.366743" lon="8.463377">
        <ele>186.64</ele>
        <time>2024-06-15T08:51:45.267Z</time>
      </trkpt>
      <trkpt lat="44.366712" lon="8.463333">
        <ele>186.76</ele>
        <time>2024-06-15T08:51:45.738Z</time>
      </trkpt>
      <trkpt lat="44.366713" lon="8.463229">
        <ele>188.86</ele>
        <time>2024-06-15T08:51:46.530Z</time>
      </trkpt>
      <trkpt lat="44.366694" lon="8.463187">
        <ele>188.73</ele>
        <time>2024-06-15T08:51:46.908Z</time>
      </trkpt>
      <trkpt lat="44.366671" lon="8.463166">
        <ele>187.93</ele>
        <time>2024-06-15T08:51:47.200Z</time>
      </trkpt>
      <trkpt lat="44.366649" lon="8.463166">
        <ele>186.86</ele>
        <time>2024-06-15T08:51:47.434Z</time>
      </trkpt>
      <trkpt lat="44.366642" lon="8.463211">
        <ele>185.92</ele>
        <time>2024-06-15T08:51:47.785Z</time>
      </trkpt>
      <trkpt lat="44.366583" lon="8.463199">
        <ele>182.97</ele>
        <time>2024-06-15T08:51:48.420Z</time>
      </trkpt>
      <trkpt lat="44.366499" lon="8.463201">
        <ele>178.14</ele>
        <time>2024-06-15T08:51:49.316Z</time>
      </trkpt>
      <trkpt lat="44.366468" lon="8.463253">
        <ele>175.85</ele>
        <time>2024-06-15T08:51:49.832Z</time>
      </trkpt>
      <trkpt lat="44.366453" lon="8.463332">
        <ele>174.19</ele>
        <time>2024-06-15T08:51:50.455Z</time>
      </trkpt>
      <trkpt lat="44.366528" lon="8.463627">
        <ele>171.89</ele>
        <time>2024-06-15T08:51:52.842Z</time>
      </trkpt>
      <trkpt lat="44.366516" lon="8.463676">
        <ele>170.03</ele>
        <time>2024-06-15T08:51:53.236Z</time>
      </trkpt>
      <trkpt lat="44.366427" lon="8.463774">
        <ele>163.81</ele>
        <time>2024-06-15T08:51:54.443Z</time>
      </trkpt>
      <trkpt lat="44.366390" lon="8.463832">
        <ele>161.00</ele>
        <time>2024-06-15T08:51:55.035Z</time>
      </trkpt>
      <trkpt lat="44.366401" lon="8.463865">
        <ele>160.38</ele>
        <time>2024-06-15T08:51:55.312Z</time>
      </trkpt>
      <trkpt lat="44.366373" lon="8.463915">
        <ele>158.15</ele>
        <time>2024-06-15T08:51:55.796Z</time>
      </trkpt>
      <trkpt lat="44.366345" lon="8.463939">
        <ele>156.69</ele>
        <time>2024-06-15T08:51:56.146Z</time>
      </trkpt>
      <trkpt lat="44.366284" lon="8.463951">
        <ele>154.58</ele>
        <time>2024-06-15T08:51:56.802Z</time>
      </trkpt>
      <trkpt lat="44.366251" lon="8.464040">
        <ele>151.31</ele>
        <time>2024-06-15T08:51:57.566Z</time>
      </trkpt>
      <trkpt lat="44.366225" lon="8.464058">
        <ele>150.02</ele>
        <time>2024-06-15T08:51:57.875Z</time>
      </trkpt>
      <trkpt lat="44.366205" lon="8.464019">
        <ele>150.38</ele>
        <time>2024-06-15T08:51:58.240Z</time>
      </trkpt>
      <trkpt lat="44.366218" lon="8.463937">
        <ele>152.61</ele>
        <time>2024-06-15T08:51:58.880Z</time>
      </trkpt>
      <trkpt lat="44.366196" lon="8.463923">
        <ele>152.00</ele>
        <time>2024-06-15T08:51:59.137Z</time>
      </trkpt>
      <trkpt lat="44.366155" lon="8.463947">
        <ele>149.85</ele>
        <time>2024-06-15T08:51:59.611Z</time>
      </trkpt>
      <trkpt lat="44.366145" lon="8.464079">
        <ele>146.97</ele>
        <time>2024-06-15T08:52:00.623Z</time>
      </trkpt>
      <trkpt lat="44.366122" lon="8.464099">
        <ele>145.70</ele>
        <time>2024-06-15T08:52:00.911Z</time>
      </trkpt>
      <trkpt lat="44.365990" lon="8.464195">
        <ele>138.72</ele>
        <time>2024-06-15T08:52:02.497Z</time>
      </trkpt>
      <trkpt lat="44.365865" lon="8.464359">
        <ele>131.18</ele>
        <time>2024-06-15T08:52:04.324Z</time>
      </trkpt>
      <trkpt lat="44.365837" lon="8.464366">
        <ele>130.03</ele>
        <time>2024-06-15T08:52:04.627Z</time>
      </trkpt>
      <trkpt lat="44.365763" lon="8.464408">
        <ele>126.47</ele>
        <time>2024-06-15T08:52:05.478Z</time>
      </trkpt>
      <trkpt lat="44.365681" lon="8.464477">
        <ele>122.25</ele>
        <time>2024-06-15T08:52:06.498Z</time>
      </trkpt>
      <trkpt lat="44.365655" lon="8.464509">
        <ele>120.87</ele>
        <time>2024-06-15T08:52:06.867Z</time>
      </trkpt>
      <trkpt lat="44.365627" lon="8.464572">
        <ele>118.99</ele>
        <time>2024-06-15T08:52:07.432Z</time>
      </trkpt>
      <trkpt lat="44.365603" lon="8.464688">
        <ele>116.59</ele>
        <time>2024-06-15T08:52:08.352Z</time>
      </trkpt>
      <trkpt lat="44.365604" lon="8.464744">
        <ele>115.78</ele>
        <time>2024-06-15T08:52:08.779Z</time>
      </trkpt>
      <trkpt lat="44.365571" lon="8.464846">
        <ele>113.01</ele>
        <time>2024-06-15T08:52:09.632Z</time>
      </trkpt>
      <trkpt lat="44.365595" lon="8.464902">
        <ele>112.62</ele>
        <time>2024-06-15T08:52:10.129Z</time>
      </trkpt>
      <trkpt lat="44.365599" lon="8.464957">
        <ele>111.57</ele>
        <time>2024-06-15T08:52:10.550Z</time>
      </trkpt>
      <trkpt lat="44.365597" lon="8.464985">
        <ele>110.92</ele>
        <time>2024-06-15T08:52:10.764Z</time>
      </trkpt>
      <trkpt lat="44.365583" lon="8.465015">
        <ele>110.01</ele>
        <time>2024-06-15T08:52:11.037Z</time>
      </trkpt>
      <trkpt lat="44.365579" lon="8.465090">
        <ele>108.21</ele>
        <time>2024-06-15T08:52:11.610Z</time>
      </trkpt>
      <trkpt lat="44.365543" lon="8.465098">
        <ele>107.41</ele>
        <time>2024-06-15T08:52:11.998Z</time>
      </trkpt>
      <trkpt lat="44.365546" lon="8.465170">
        <ele>105.75</ele>
        <time>2024-06-15T08:52:12.547Z</time>
      </trkpt>
      <trkpt lat="44.365531" lon="8.465172">
        <ele>105.51</ele>
        <time>2024-06-15T08:52:12.707Z</time>
      </trkpt>
      <trkpt lat="44.365513" lon="8.465195">
        <ele>104.66</ele>
        <time>2024-06-15T08:52:12.967Z</time>
      </trkpt>
      <trkpt lat="44.365504" lon="8.465224">
        <ele>103.82</ele>
        <time>2024-06-15T08:52:13.208Z</time>
      </trkpt>
      <trkpt lat="44.365512" lon="8.465306">
        <ele>101.40</ele>
        <time>2024-06-15T08:52:13.839Z</time>
      </trkpt>
      <trkpt lat="44.365512" lon="8.465308">
        <ele>101.34</ele>
        <time>2024-06-15T08:52:13.854Z</time>
      </trkpt>
      <trkpt lat="44.365512" lon="8.465308">
        <ele>101.34</ele>
        <time>2024-06-15T08:52:13.937Z</time>
      </trkpt>
      <trkpt lat="44.365491" lon="8.465311">
        <ele>101.10</ele>
        <time>2024-06-15T08:52:14.133Z</time>
      </trkpt>
      <trkpt lat="44.365491" lon="8.465311">
        <ele>101.10</ele>
        <time>2024-06-15T08:52:14.133Z</time>
      </trkpt>
      <trkpt lat="44.365450" lon="8.465223">
        <ele>102.95</ele>
        <time>2024-06-15T08:52:14.837Z</time>
      </trkpt>
      <trkpt lat="44.365407" lon="8.465197">
        <ele>102.54</ele>
        <time>2024-06-15T08:52:15.336Z</time>
      </trkpt>
      <trkpt lat="44.365398" lon="8.465111">
        <ele>103.47</ele>
        <time>2024-06-15T08:52:15.996Z</time>
      </trkpt>
      <trkpt lat="44.365316" lon="8.464752">
        <ele>102.88</ele>
        <time>2024-06-15T08:52:18.858Z</time>
      </trkpt>
      <trkpt lat="44.365263" lon="8.464605">
        <ele>100.74</ele>
        <time>2024-06-15T08:52:20.108Z</time>
      </trkpt>
      <trkpt lat="44.365232" lon="8.464584">
        <ele>99.40</ele>
        <time>2024-06-15T08:52:20.473Z</time>
      </trkpt>
      <trkpt lat="44.365202" lon="8.464585">
        <ele>98.22</ele>
        <time>2024-06-15T08:52:20.791Z</time>
      </trkpt>
      <trkpt lat="44.365073" lon="8.464758">
        <ele>93.86</ele>
        <time>2024-06-15T08:52:22.689Z</time>
      </trkpt>
      <trkpt lat="44.365001" lon="8.464826">
        <ele>91.75</ele>
        <time>2024-06-15T08:52:23.611Z</time>
      </trkpt>
      <trkpt lat="44.364870" lon="8.464907">
        <ele>88.49</ele>
        <time>2024-06-15T08:52:25.132Z</time>
      </trkpt>
      <trkpt lat="44.364783" lon="8.464926">
        <ele>86.79</ele>
        <time>2024-06-15T08:52:26.067Z</time>
      </trkpt>
      <trkpt lat="44.364661" lon="8.464920">
        <ele>85.26</ele>
        <time>2024-06-15T08:52:27.363Z</time>
      </trkpt>
      <trkpt lat="44.364600" lon="8.464909">
        <ele>84.81</ele>
        <time>2024-06-15T08:52:28.016Z</time>
      </trkpt>
      <trkpt lat="44.364432" lon="8.464853">
        <ele>84.26</ele>
        <time>2024-06-15T08:52:29.850Z</time>
      </trkpt>
      <trkpt lat="44.364284" lon="8.464831">
        <ele>83.36</ele>
        <time>2024-06-15T08:52:31.430Z</time>
      </trkpt>
      <trkpt lat="44.364203" lon="8.464831">
        <ele>82.40</ele>
        <time>2024-06-15T08:52:32.290Z</time>
      </trkpt>
      <trkpt lat="44.364155" lon="8.464878">
        <ele>81.39</ele>
        <time>2024-06-15T08:52:32.912Z</time>
      </trkpt>
      <trkpt lat="44.364028" lon="8.464881">
        <ele>78.62</ele>
        <time>2024-06-15T08:52:34.261Z</time>
      </trkpt>
      <trkpt lat="44.363953" lon="8.464869">
        <ele>76.81</ele>
        <time>2024-06-15T08:52:35.062Z</time>
      </trkpt>
      <trkpt lat="44.363886" lon="8.464838">
        <ele>75.35</ele>
        <time>2024-06-15T08:52:35.811Z</time>
      </trkpt>
      <trkpt lat="44.363849" lon="8.464807">
        <ele>74.63</ele>
        <time>2024-06-15T08:52:36.269Z</time>
      </trkpt>
      <trkpt lat="44.363812" lon="8.464796">
        <ele>73.79</ele>
        <time>2024-06-15T08:52:36.670Z</time>
      </trkpt>
      <trkpt lat="44.363785" lon="8.464801">
        <ele>73.11</ele>
        <time>2024-06-15T08:52:36.959Z</time>
      </trkpt>
      <trkpt lat="44.363676" lon="8.464843">
        <ele>70.68</ele>
        <time>2024-06-15T08:52:38.159Z</time>
      </trkpt>
      <trkpt lat="44.363519" lon="8.465191">
        <ele>71.64</ele>
        <time>2024-06-15T08:52:41.284Z</time>
      </trkpt>
      <trkpt lat="44.363350" lon="8.465046">
        <ele>69.38</ele>
        <time>2024-06-15T08:52:43.390Z</time>
      </trkpt>
      <trkpt lat="44.363245" lon="8.465017">
        <ele>68.67</ele>
        <time>2024-06-15T08:52:44.526Z</time>
      </trkpt>
      <trkpt lat="44.363130" lon="8.465081">
        <ele>69.10</ele>
        <time>2024-06-15T08:52:45.840Z</time>
      </trkpt>
      <trkpt lat="44.362957" lon="8.465289">
        <ele>70.65</ele>
        <time>2024-06-15T08:52:48.263Z</time>
      </trkpt>
      <trkpt lat="44.362681" lon="8.465691">
        <ele>72.61</ele>
        <time>2024-06-15T08:52:52.495Z</time>
      </trkpt>
    </trkseg>
  </trk>
</gpx>