<?xml version='1.0' encoding='utf-8'?>
<gpx xmlns="http://www.topografix.com/GPX/1/1" xmlns:xsi="http://www.w3.org/2001/XMLSchema-instance" version="1.1" creator="Trailforks.com" xsi:schemaLocation="http://www.topografix.com/GPX/1/1 http://www.topografix.com/GPX/1/1/gpx.xsd http://www.garmin.com/xmlschemas/TrackPointExtension/v1 http://www.garmin.com/xmlschemas/TrackPointExtensionv1.xsd">
  <metadata>
    <name>DH Camilla GPX - Albi Trail Area</name>
    <desc>Tecnico / Downhill. Lunghezza ~1.5 km - Dislivello -277 m. Tempo medio: ~8 min.</desc>
    <author>
      <name>Comitato Ellerese</name>
    </author>
    <link href="https://www.trailforks.com/trails/dh-camilla/">
      <text>Trail reference</text>
    </link>
    <keywords>ellera,albi-trail-area,mtb,downhill,tecnico</keywords>
    <time>2024-06-15T08:00:00Z</time>
  </metadata>
  <trk>
    <name>DH Camilla</name>
    <desc>Tecnico / Downhill. Lunghezza ~1.5 km - Dislivello -277 m.</desc>
    <type>MTB Descent</type>
    <trkseg>
      <trkpt lat="44.36888" lon="8.48867">
        <time>2024-06-15T08:00:00Z</time>
        <ele>356</ele>
      </trkpt>
      <trkpt lat="44.36863" lon="8.48883">
        <time>2024-06-15T08:00:05Z</time>
        <ele>360</ele>
      </trkpt>
      <trkpt lat="44.36859" lon="8.48888">
        <time>2024-06-15T08:00:06Z</time>
        <ele>360</ele>
      </trkpt>
      <trkpt lat="44.36846" lon="8.48899">
        <time>2024-06-15T08:00:08Z</time>
        <ele>362</ele>
      </trkpt>
      <trkpt lat="44.3684" lon="8.48907">
        <time>2024-06-15T08:00:10Z</time>
        <ele>367</ele>
      </trkpt>
      <trkpt lat="44.36832" lon="8.48912">
        <time>2024-06-15T08:00:12Z</time>
        <ele>367</ele>
      </trkpt>
      <trkpt lat="44.36828" lon="8.48918">
        <time>2024-06-15T08:00:13Z</time>
        <ele>367</ele>
      </trkpt>
      <trkpt lat="44.36818" lon="8.48929">
        <time>2024-06-15T08:00:15Z</time>
        <ele>366</ele>
      </trkpt>
      <trkpt lat="44.36798" lon="8.48935">
        <time>2024-06-15T08:00:19Z</time>
        <ele>370</ele>
      </trkpt>
      <trkpt lat="44.36778" lon="8.48949">
        <time>2024-06-15T08:00:23Z</time>
        <ele>369</ele>
      </trkpt>
      <trkpt lat="44.36765" lon="8.48955">
        <time>2024-06-15T08:00:25Z</time>
        <ele>369</ele>
      </trkpt>
      <trkpt lat="44.36751" lon="8.48959">
        <time>2024-06-15T08:00:28Z</time>
        <ele>368</ele>
      </trkpt>
      <trkpt lat="44.3673" lon="8.48967">
        <time>2024-06-15T08:00:32Z</time>
        <ele>368</ele>
      </trkpt>
      <trkpt lat="44.36718" lon="8.48978">
        <time>2024-06-15T08:00:35Z</time>
        <ele>368</ele>
      </trkpt>
      <trkpt lat="44.36717" lon="8.48986">
        <time>2024-06-15T08:00:36Z</time>
        <ele>368</ele>
      </trkpt>
      <trkpt lat="44.36712" lon="8.48986">
        <time>2024-06-15T08:00:37Z</time>
        <ele>368</ele>
      </trkpt>
      <trkpt lat="44.36704" lon="8.4898">
        <time>2024-06-15T08:00:38Z</time>
        <ele>365</ele>
      </trkpt>
      <trkpt lat="44.36702" lon="8.48982">
        <time>2024-06-15T08:00:39Z</time>
        <ele>365</ele>
      </trkpt>
      <trkpt lat="44.36702" lon="8.4899">
        <time>2024-06-15T08:00:40Z</time>
        <ele>360</ele>
      </trkpt>
      <trkpt lat="44.36706" lon="8.48999">
        <time>2024-06-15T08:00:42Z</time>
        <ele>360</ele>
      </trkpt>
      <trkpt lat="44.36707" lon="8.49004">
        <time>2024-06-15T08:00:42Z</time>
        <ele>360</ele>
      </trkpt>
      <trkpt lat="44.367" lon="8.4901">
        <time>2024-06-15T08:00:44Z</time>
        <ele>360</ele>
      </trkpt>
      <trkpt lat="44.36703" lon="8.4902">
        <time>2024-06-15T08:00:46Z</time>
        <ele>351</ele>
      </trkpt>
      <trkpt lat="44.36703" lon="8.49023">
        <time>2024-06-15T08:00:46Z</time>
        <ele>351</ele>
      </trkpt>
      <trkpt lat="44.36694" lon="8.49027">
        <time>2024-06-15T08:00:48Z</time>
        <ele>351</ele>
      </trkpt>
      <trkpt lat="44.36693" lon="8.49031">
        <time>2024-06-15T08:00:48Z</time>
        <ele>351</ele>
      </trkpt>
      <trkpt lat="44.36694" lon="8.49041">
        <time>2024-06-15T08:00:50Z</time>
        <ele>351</ele>
      </trkpt>
      <trkpt lat="44.36693" lon="8.49043">
        <time>2024-06-15T08:00:51Z</time>
        <ele>341</ele>
      </trkpt>
      <trkpt lat="44.36682" lon="8.4904">
        <time>2024-06-15T08:00:54Z</time>
        <ele>351</ele>
      </trkpt>
      <trkpt lat="44.3668" lon="8.49047">
        <time>2024-06-15T08:00:57Z</time>
        <ele>332</ele>
      </trkpt>
      <trkpt lat="44.36682" lon="8.49053">
        <time>2024-06-15T08:00:59Z</time>
        <ele>341</ele>
      </trkpt>
      <trkpt lat="44.36686" lon="8.49057">
        <time>2024-06-15T08:01:00Z</time>
        <ele>341</ele>
      </trkpt>
      <trkpt lat="44.36687" lon="8.49065">
        <time>2024-06-15T08:01:01Z</time>
        <ele>341</ele>
      </trkpt>
      <trkpt lat="44.36677" lon="8.49076">
        <time>2024-06-15T08:01:05Z</time>
        <ele>322</ele>
      </trkpt>
      <trkpt lat="44.36665" lon="8.49118">
        <time>2024-06-15T08:01:11Z</time>
        <ele>316</ele>
      </trkpt>
      <trkpt lat="44.36645" lon="8.49174">
        <time>2024-06-15T08:01:19Z</time>
        <ele>304</ele>
      </trkpt>
      <trkpt lat="44.36641" lon="8.49192">
        <time>2024-06-15T08:01:22Z</time>
        <ele>302</ele>
      </trkpt>
      <trkpt lat="44.36637" lon="8.49195">
        <time>2024-06-15T08:01:23Z</time>
        <ele>302</ele>
      </trkpt>
      <trkpt lat="44.3663" lon="8.49196">
        <time>2024-06-15T08:01:24Z</time>
        <ele>302</ele>
      </trkpt>
      <trkpt lat="44.36629" lon="8.49199">
        <time>2024-06-15T08:01:24Z</time>
        <ele>302</ele>
      </trkpt>
      <trkpt lat="44.36632" lon="8.49215">
        <time>2024-06-15T08:01:27Z</time>
        <ele>294</ele>
      </trkpt>
      <trkpt lat="44.36624" lon="8.49217">
        <time>2024-06-15T08:01:28Z</time>
        <ele>293</ele>
      </trkpt>
      <trkpt lat="44.36615" lon="8.49227">
        <time>2024-06-15T08:01:30Z</time>
        <ele>293</ele>
      </trkpt>
      <trkpt lat="44.36608" lon="8.49231">
        <time>2024-06-15T08:01:32Z</time>
        <ele>293</ele>
      </trkpt>
      <trkpt lat="44.3659" lon="8.49256">
        <time>2024-06-15T08:01:37Z</time>
        <ele>280</ele>
      </trkpt>
      <trkpt lat="44.36573" lon="8.4926">
        <time>2024-06-15T08:01:40Z</time>
        <ele>280</ele>
      </trkpt>
      <trkpt lat="44.36562" lon="8.49271">
        <time>2024-06-15T08:01:43Z</time>
        <ele>273</ele>
      </trkpt>
      <trkpt lat="44.3655" lon="8.49277">
        <time>2024-06-15T08:01:45Z</time>
        <ele>273</ele>
      </trkpt>
      <trkpt lat="44.3653" lon="8.49292">
        <time>2024-06-15T08:01:50Z</time>
        <ele>264</ele>
      </trkpt>
      <trkpt lat="44.3652" lon="8.49294">
        <time>2024-06-15T08:01:51Z</time>
        <ele>264</ele>
      </trkpt>
      <trkpt lat="44.36512" lon="8.49298">
        <time>2024-06-15T08:01:53Z</time>
        <ele>256</ele>
      </trkpt>
      <trkpt lat="44.36481" lon="8.4932">
        <time>2024-06-15T08:02:00Z</time>
        <ele>249</ele>
      </trkpt>
      <trkpt lat="44.36467" lon="8.49335">
        <time>2024-06-15T08:02:03Z</time>
        <ele>249</ele>
      </trkpt>
      <trkpt lat="44.36451" lon="8.49348">
        <time>2024-06-15T08:02:07Z</time>
        <ele>246</ele>
      </trkpt>
      <trkpt lat="44.36444" lon="8.49349">
        <time>2024-06-15T08:02:08Z</time>
        <ele>246</ele>
      </trkpt>
      <trkpt lat="44.36437" lon="8.49347">
        <time>2024-06-15T08:02:09Z</time>
        <ele>247</ele>
      </trkpt>
      <trkpt lat="44.36427" lon="8.49342">
        <time>2024-06-15T08:02:11Z</time>
        <ele>244</ele>
      </trkpt>
      <trkpt lat="44.36404" lon="8.49337">
        <time>2024-06-15T08:02:15Z</time>
        <ele>244</ele>
      </trkpt>
      <trkpt lat="44.36389" lon="8.49341">
        <time>2024-06-15T08:02:18Z</time>
        <ele>241</ele>
      </trkpt>
      <trkpt lat="44.36376" lon="8.49342">
        <time>2024-06-15T08:02:21Z</time>
        <ele>241</ele>
      </trkpt>
      <trkpt lat="44.36373" lon="8.49345">
        <time>2024-06-15T08:02:21Z</time>
        <ele>239</ele>
      </trkpt>
      <trkpt lat="44.36365" lon="8.49347">
        <time>2024-06-15T08:02:23Z</time>
        <ele>239</ele>
      </trkpt>
      <trkpt lat="44.36352" lon="8.49354">
        <time>2024-06-15T08:02:25Z</time>
        <ele>242</ele>
      </trkpt>
      <trkpt lat="44.36322" lon="8.49395">
        <time>2024-06-15T08:02:33Z</time>
        <ele>232</ele>
      </trkpt>
      <trkpt lat="44.36304" lon="8.4941">
        <time>2024-06-15T08:02:38Z</time>
        <ele>218</ele>
      </trkpt>
      <trkpt lat="44.36293" lon="8.49425">
        <time>2024-06-15T08:02:41Z</time>
        <ele>218</ele>
      </trkpt>
      <trkpt lat="44.36272" lon="8.49447">
        <time>2024-06-15T08:02:46Z</time>
        <ele>208</ele>
      </trkpt>
      <trkpt lat="44.36256" lon="8.49476">
        <time>2024-06-15T08:02:51Z</time>
        <ele>196</ele>
      </trkpt>
      <trkpt lat="44.36252" lon="8.49479">
        <time>2024-06-15T08:02:52Z</time>
        <ele>196</ele>
      </trkpt>
      <trkpt lat="44.36248" lon="8.49489">
        <time>2024-06-15T08:02:53Z</time>
        <ele>191</ele>
      </trkpt>
      <trkpt lat="44.36242" lon="8.49496">
        <time>2024-06-15T08:02:55Z</time>
        <ele>191</ele>
      </trkpt>
      <trkpt lat="44.36228" lon="8.49506">
        <time>2024-06-15T08:02:58Z</time>
        <ele>182</ele>
      </trkpt>
      <trkpt lat="44.36226" lon="8.4951">
        <time>2024-06-15T08:02:59Z</time>
        <ele>182</ele>
      </trkpt>
      <trkpt lat="44.36216" lon="8.49517">
        <time>2024-06-15T08:03:01Z</time>
        <ele>181</ele>
      </trkpt>
      <trkpt lat="44.36207" lon="8.49522">
        <time>2024-06-15T08:03:03Z</time>
        <ele>173</ele>
      </trkpt>
      <trkpt lat="44.36201" lon="8.49523">
        <time>2024-06-15T08:03:04Z</time>
        <ele>173</ele>
      </trkpt>
      <trkpt lat="44.36178" lon="8.49551">
        <time>2024-06-15T08:03:10Z</time>
        <ele>166</ele>
      </trkpt>
      <trkpt lat="44.36148" lon="8.49575">
        <time>2024-06-15T08:03:16Z</time>
        <ele>162</ele>
      </trkpt>
      <trkpt lat="44.3613" lon="8.49592">
        <time>2024-06-15T08:03:20Z</time>
        <ele>162</ele>
      </trkpt>
      <trkpt lat="44.36115" lon="8.49611">
        <time>2024-06-15T08:03:24Z</time>
        <ele>161</ele>
      </trkpt>
      <trkpt lat="44.36111" lon="8.49619">
        <time>2024-06-15T08:03:25Z</time>
        <ele>161</ele>
      </trkpt>
      <trkpt lat="44.36102" lon="8.49628">
        <time>2024-06-15T08:03:27Z</time>
        <ele>162</ele>
      </trkpt>
      <trkpt lat="44.36095" lon="8.49631">
        <time>2024-06-15T08:03:29Z</time>
        <ele>156</ele>
      </trkpt>
      <trkpt lat="44.36086" lon="8.4964">
        <time>2024-06-15T08:03:31Z</time>
        <ele>156</ele>
      </trkpt>
      <trkpt lat="44.3608" lon="8.49642">
        <time>2024-06-15T08:03:32Z</time>
        <ele>156</ele>
      </trkpt>
      <trkpt lat="44.36075" lon="8.49645">
        <time>2024-06-15T08:03:33Z</time>
        <ele>156</ele>
      </trkpt>
      <trkpt lat="44.36065" lon="8.49642">
        <time>2024-06-15T08:03:35Z</time>
        <ele>147</ele>
      </trkpt>
      <trkpt lat="44.36053" lon="8.49653">
        <time>2024-06-15T08:03:38Z</time>
        <ele>146</ele>
      </trkpt>
      <trkpt lat="44.36046" lon="8.4965">
        <time>2024-06-15T08:03:39Z</time>
        <ele>147</ele>
      </trkpt>
      <trkpt lat="44.36027" lon="8.49655">
        <time>2024-06-15T08:03:43Z</time>
        <ele>137</ele>
      </trkpt>
      <trkpt lat="44.36023" lon="8.49653">
        <time>2024-06-15T08:03:44Z</time>
        <ele>137</ele>
      </trkpt>
      <trkpt lat="44.3601" lon="8.49657">
        <time>2024-06-15T08:03:47Z</time>
        <ele>127</ele>
      </trkpt>
      <trkpt lat="44.36007" lon="8.49657">
        <time>2024-06-15T08:03:47Z</time>
        <ele>127</ele>
      </trkpt>
      <trkpt lat="44.36001" lon="8.49652">
        <time>2024-06-15T08:03:49Z</time>
        <ele>127</ele>
      </trkpt>
      <trkpt lat="44.35992" lon="8.4965">
        <time>2024-06-15T08:03:50Z</time>
        <ele>127</ele>
      </trkpt>
      <trkpt lat="44.3599" lon="8.49651">
        <time>2024-06-15T08:03:51Z</time>
        <ele>127</ele>
      </trkpt>
      <trkpt lat="44.35986" lon="8.49659">
        <time>2024-06-15T08:03:53Z</time>
        <ele>115</ele>
      </trkpt>
      <trkpt lat="44.35977" lon="8.49661">
        <time>2024-06-15T08:03:55Z</time>
        <ele>115</ele>
      </trkpt>
      <trkpt lat="44.35961" lon="8.49664">
        <time>2024-06-15T08:03:58Z</time>
        <ele>115</ele>
      </trkpt>
      <trkpt lat="44.35949" lon="8.49661">
        <time>2024-06-15T08:04:01Z</time>
        <ele>103</ele>
      </trkpt>
      <trkpt lat="44.35933" lon="8.49665">
        <time>2024-06-15T08:04:04Z</time>
        <ele>103</ele>
      </trkpt>
      <trkpt lat="44.35927" lon="8.49675">
        <time>2024-06-15T08:04:06Z</time>
        <ele>97</ele>
      </trkpt>
      <trkpt lat="44.35918" lon="8.49675">
        <time>2024-06-15T08:04:07Z</time>
        <ele>97</ele>
      </trkpt>
      <trkpt lat="44.35912" lon="8.4968">
        <time>2024-06-15T08:04:08Z</time>
        <ele>97</ele>
      </trkpt>
      <trkpt lat="44.35898" lon="8.49681">
        <time>2024-06-15T08:04:11Z</time>
        <ele>92</ele>
      </trkpt>
      <trkpt lat="44.35889" lon="8.49701">
        <time>2024-06-15T08:04:14Z</time>
        <ele>92</ele>
      </trkpt>
      <trkpt lat="44.35876" lon="8.49713">
        <time>2024-06-15T08:04:17Z</time>
        <ele>92</ele>
      </trkpt>
      <trkpt lat="44.35869" lon="8.49723">
        <time>2024-06-15T08:04:19Z</time>
        <ele>92</ele>
      </trkpt>
      <trkpt lat="44.3586" lon="8.49724">
        <time>2024-06-15T08:04:21Z</time>
        <ele>92</ele>
      </trkpt>
      <trkpt lat="44.35844" lon="8.49734">
        <time>2024-06-15T08:04:24Z</time>
        <ele>88</ele>
      </trkpt>
      <trkpt lat="44.35829" lon="8.4974">
        <time>2024-06-15T08:04:27Z</time>
        <ele>93</ele>
      </trkpt>
    </trkseg>
  </trk>
</gpx>